Record ID,Store Name,Store Street Address,Additonal Address,City,State,Zip Code,Zip4,County,Store Type,Latitude,Longitude,Incentive Program,Grantee Name,x,y
1619523,Mayta's Market International ,23311B Pacific Hwy S,,Kent,WA,98032,2704,KING,Grocery Store,47.392399,-122.29671,,,-13614007.482892647,6006360.438823846
992426,7-Eleven 14392b 14392b,9 Nickerson St,,Seattle,WA,98109,1619,KING,Convenience Store,47.649216,-122.3573,,,-13620752.330839813,6048694.0236418415
1633036,Wedgmart,6256 35th Ave NE,,Seattle,WA,98115,7315,KING,Convenience Store,47.675564,-122.28986,,,-13613244.944380714,6053048.968381137
1416254,7-eleven #38597a,22422 83rd Ave S,,Kent,WA,98032,1989,KING,Convenience Store,47.400726,-122.2293,,,-13606503.436018271,6007729.813673207
1640684,Rocket 5494 5494,11848 NE 85th St,,Kirkland,WA,98033,8041,KING,Convenience Store,47.679569,-122.18116,,,-13601144.515731486,6053711.129675636
1638050,TRADER JOE'S SEATTLE (GREENWOOD) 273,8726 Greenwood Ave N,,Seattle,WA,98103,3616,KING,Supermarket,47.692921,-122.35507,,,-13620504.088375343,6055919.031940766
250387,Safeway 459,20830 108th Ave SE,,Kent,WA,98031,2168,KING,Supermarket,47.414768,-122.19701,,Washington State Department of Health ,-13602908.92966056,6010039.510378498
250819,7-ELEVEN 14438 G,11065 8th Ave S,,Seattle,WA,98168,1507,KING,Convenience Store,47.5033,-122.32318,,,-13616954.109813945,6024615.889637424
253560,Walgreens 06901,28817 Military Rd S,,Federal Way,WA,98003,7912,KING,Other,47.34309,-122.30123,,,-13614510.646991033,5998256.006097614
271306,FRED MEYER 459,365 Renton Center Way SW,,Renton,WA,98057,2324,KING,Super Store,47.47752,-122.21928,,,-13605388.014720526,6020368.79952674
270050,University District Farmers Market,5031 University Way NE,,Seattle,WA,98105,4341,KING,Farmers and Markets,47.666321,-122.3131,,Washington State Department of Health ,-13615832.009346751,6051520.983363386
285979,Brown's Corner Short Stop,5550 Auburn Way S,,Auburn,WA,98092,7308,KING,Convenience Store,47.275108,-122.15559,,,-13598298.076351902,5987094.87965992
238327,Pike Place Market Creamery,1514 Pike Pl,Ste 3,Seattle,WA,98101,1574,KING,Other,47.609177,-122.34081,,,-13618916.67243663,6042080.357764951
238334,Green Valley Meats,12565 SE Green Valley Rd,,Auburn,WA,98092,8503,KING,Grocery Store,47.297245,-122.17508,,,-13600467.69322746,5990727.704885833
288639,QFC 887,417 Broadway E,,Seattle,WA,98102,5009,KING,Super Store,47.622566,-122.3215,,,-13616767.093069414,6044291.396977342
1601469,Stillwater Grocery,9301 Carnation Duvall Rd NE,,Carnation,WA,98014,6706,KING,Convenience Store,47.682636,-121.92009,,,-13572082.336270085,6054218.24236834
239202,PAPA MURPHYS WA-047,721 M St NE,Ste 107,Auburn,WA,98002,4503,KING,Specialty Store,47.314823,-122.21469,,,-13604877.058257783,5993613.452119852
284415,Safeway 488,3020 NE 45th St,,Seattle,WA,98105,5002,KING,Supermarket,47.66209,-122.29512,,Washington State Department of Health ,-13613830.484902285,6050821.635728706
239364,7-ELEVEN 27284 B,32935 1st Ave S,,Federal Way,WA,98003,6304,KING,Convenience Store,47.306511,-122.33473,,,-13618239.849932607,5992248.7670957465
229356,Walgreens 07908,27130 172nd Ave SE,,Covington,WA,98042,4940,KING,Other,47.358913,-122.11201,,,-13593446.77294313,6000855.850742344
229600,7-ELEVEN 23228 C,31006 Pacific Hwy S,,Federal Way,WA,98003,4983,KING,Convenience Store,47.323971,-122.31273,,,-13615790.821135156,5995115.641873236
229650,QFC 805,17847 1st Ave S,,Normandy Park,WA,98148,1728,KING,Super Store,47.441807,-122.33578,,,-13618356.73539794,6014488.75255058
228808,Walgreens 06194,222 Pike St,,Seattle,WA,98101,2108,KING,Other,47.609829,-122.33835,,,-13618642.82648928,6042188.0149468
230438,Safeway 1471,26916 Maple Valley Hwy,,Maple Valley,WA,98038,8322,KING,Supermarket,47.3601,-122.02061,,Washington State Department of Health ,-13583272.171484627,6001050.915710329
230827,FRED MEYER 172,10201 SE 240th St,,Kent,WA,98031,4895,KING,Super Store,47.386913,-122.20428,,,-13603718.222358627,6005458.384550703
262954,FRED MEYER 608,915 NW 45th St,,Seattle,WA,98107,4606,KING,Super Store,47.661453,-122.36915,,,-13622071.466805715,6050716.350058092
261318,Walgreens 03662,647 140th Ave NE,,Bellevue,WA,98005,4719,KING,Other,47.617039,-122.15364,,,-13598081.003344854,6043378.607937518
261627,Safeway 1294,210 Washington Ave S,,Kent,WA,98032,5721,KING,Supermarket,47.379478,-122.24732,,Washington State Department of Health ,-13608509.413242366,6004236.009127943
262224,QFC 827,6940 Coal Creek Pkwy SE,,Newcastle,WA,98059,3137,KING,Super Store,47.538822,-122.16467,,,-13599308.857328303,6030471.330226949
262603,FRED MEYER 111,33702 21st Ave SW,,Federal Way,WA,98023,7762,KING,Super Store,47.298759,-122.36091,,,-13621154.194201577,5990976.217659235
259623,QFC 820,15800 Redmond Way,,Redmond,WA,98052,3829,KING,Super Store,47.674828,-122.12794,,,-13595220.092431467,6052927.288338133
277456,SEMIRA'S GROCERY,2601 E Yesler Way,,Seattle,WA,98122,6151,KING,Convenience Store,47.601631,-122.29873,,,-13614232.348264052,6040834.472129816
309310,PCC Community Market View Ridge 5,6514 40th Ave NE,,Seattle,WA,98115,7530,KING,Supermarket,47.676151,-122.28437,,,-13612633.800376259,6053146.016058769
309751,Safeway 558,6911 Coal Creek Pkwy SE,,Newcastle,WA,98059,3136,KING,Supermarket,47.539497,-122.16776,,Washington State Department of Health ,-13599652.834554855,6030582.63551211
310766,Walgreens 07480,1701 Auburn Way S,,Auburn,WA,98002,6348,KING,Other,47.293129,-122.21283,,,-13604670.004004909,5990052.127525858
292043,Uwajimaya,600 FIFTH AVE S,,SEATTLE,WA,98104,    ,KING,Other,47.597057,-122.32703,,,-13617382.689853499,6040079.367333414
310970,Safeway 519,17230 140th Ave SE,,Renton,WA,98058,7014,KING,Supermarket,47.447201,-122.15244,,Washington State Department of Health ,-13597947.4199559,6015376.603763233
315478,QFC 837,22131 SE 237th St,,Maple Valley,WA,98038,8533,KING,Super Store,47.388023,-122.04501,,,-13585988.367059981,6005640.89251231
314779,QFC 803,13304 SE 240th St,,Kent,WA,98042,5106,KING,Super Store,47.386936,-122.16355,,,-13599184.179498615,6005462.166208211
335399,Franz Bakery Outlet 9025,17500 W Valley Hwy,,Tukwila,WA,98188,5500,KING,Specialty Store,47.446049,-122.2433,,,-13608061.90888938,6015186.977171155
331594,Len's Veggie Corral,9811 15th Ave SW,Apt A,Seattle,WA,98106,2868,KING,Grocery Store,47.515148,-122.35401,,,-13620386.089715103,6026568.471389171
382548,Trader Joe's 131,15563 NE 24th St,,Bellevue,WA,98007,3836,KING,Supermarket,47.631554,-122.13264,,,-13595743.294038195,6045775.979388753
381928,Corner Market,27313 Pacific Hwy S,,Federal Way,WA,98003,2413,KING,Convenience Store,47.3568,-122.31042,,,-13615533.673111424,6000508.622951218
294996,FRED MEYER 013,18325 Aurora Ave N,,Shoreline,WA,98133,4417,KING,Super Store,47.761925,-122.34777,,,-13619691.456092553,6067338.634154539
295719,7-ELEVEN 14360 A,3200 NW 54th St,,Seattle,WA,98107,3308,KING,Convenience Store,47.667786,-122.39868,,,-13625358.731368836,6051763.14838023
272697,QFC 825,2600 SW Barton St,,Seattle,WA,98126,3948,KING,Super Store,47.522285,-122.36617,,,-13621739.734723147,6027744.880653493
1665914,CVS Pharmacy 11665,10116 NE 8th St,,Bellevue,WA,98004,4148,KING,Other,47.618359,-122.20541,,,-13603844.01338322,6043596.598358523
274041,Whole Foods Market 10103,1026 NE 64th St,,Seattle,WA,98115,6656,KING,Super Store,47.675365,-122.31689,,,-13616253.910216855,6053016.068308912
350950,Han's Deli & Grocery,801 Seneca St,,Seattle,WA,98101,2760,KING,Convenience Store,47.609287,-122.32925,,,-13617629.819123061,6042098.520692315
290304,ARBAT INTL FOOD MARKET,12053 124th Ave NE,,Kirkland,WA,98034,8204,KING,Grocery Store,47.706406,-122.17722,,,-13600705.916937761,6058149.501101723
352649,Safeway 497,17202 15th Ave NE,,Shoreline,WA,98155,5130,KING,Supermarket,47.754341,-122.31278,,Washington State Department of Health ,-13615796.387109695,6066082.803300937
353716,Safeway 1993,2201 E Madison St,,Seattle,WA,98112,5336,KING,Supermarket,47.618393,-122.3036,,Washington State Department of Health ,-13614774.474184215,6043602.213336008
355224,Walgreens 03518,25605 104th Ave SE,,Kent,WA,98030,7609,KING,Other,47.371548,-122.20242,,,-13603511.168105751,6002932.441573178
281239,Sosio's Fruit and Produce Inc,1527 Pike Pl,,Seattle,WA,98101,1526,KING,Specialty Store,47.608692,-122.34104,,,-13618942.275919516,6042000.276222537
436182,PCC Community Market Columbia City 15,3610 S Edmunds St,,Seattle,WA,98118,2178,KING,Supermarket,47.558674,-122.28791,,,-13613027.871373668,6033745.45876902
258143,Lake Sawyer Grocery,29036 216th Ave SE,,Black Diamond,WA,98010,1274,KING,Convenience Store,47.340828,-122.05387,,,-13586974.657748409,5997884.405189155
315708,Walgreens 03733,7707 SE 27th St,,Mercer Island,WA,98040,2844,KING,Other,47.586693,-122.23381,,,-13607005.486921752,6038368.65697987
315869,Safeway 1493,4011 S 164th St,,Seatac,WA,98188,3067,KING,Supermarket,47.45562,-122.28248,,Washington State Department of Health ,-13612423.40653866,6016762.551286469
315914,RITE AID  5186,2131 SW 336th St,,Federal Way,WA,98023,2847,KING,Other,47.299683,-122.36268,,,-13621351.22970028,5991127.889453615
316203,PAPA MURPHYS WA-052,20528 108th Ave SE,,Kent,WA,98031,1542,KING,Specialty Store,47.418087,-122.19529,,,-13602717.460136395,6010585.525687086
257371,Safeway 464,17246 Redmond Way,,Redmond,WA,98052,4403,KING,Supermarket,47.672039,-122.1097,,Washington State Department of Health ,-13593189.624919398,6052466.209292148
317039,Walgreens 06357,6300 E Lake Sammamish Pkwy SE,,Issaquah,WA,98029,8935,KING,Other,47.545296,-122.03732,,,-13585132.32017578,6031538.930628335
302750,Safeway 1572,14020 Main St NE,,Duvall,WA,98019,8457,KING,Supermarket,47.726311,-121.98473,,Washington State Department of Health ,-13579278.028154962,6061442.916937022
241740,Walgreens 06389,8500 15th Ave NW,Ste A,Seattle,WA,98117,3665,KING,Other,47.69088,-122.37675,,,-13622917.49493574,6055581.493207658
240713,Rainier Valero,7301 Rainier Ave S,,Seattle,WA,98118,3943,KING,Convenience Store,47.53677,-122.27027,,,-13611064.195556074,6030132.970959323
303160,Fred Meyer 23,2041 148th Ave NE,,Bellevue,WA,98007,3725,KING,Super Store,47.628849,-122.14472,,,-13597088.033486977,6045329.157315781
453980,Walgreens 06258,11607 98th Ave NE,,Kirkland,WA,98034,4216,KING,Other,47.704967,-122.21114,,,-13604481.874065468,6057911.457649486
325645,FRED MEYER 031,17801 108th Ave SE,,Renton,WA,98055,6420,KING,Super Store,47.442894,-122.19946,,,-13603181.662413003,6014667.665186916
396901,Walgreens 06259,9456 16th Ave SW,,Seattle,WA,98106,2824,KING,Other,47.518139,-122.3551,,,-13620507.427960066,6027061.465797034
455557,Whole Foods Market 10153,888 116th Ave NE,,Bellevue,WA,98004,4607,KING,Super Store,47.618359,-122.18563,,,-13601642.113855332,6043596.598358523
453401,Safeway 1142,12519 NE 85th St,,Kirkland,WA,98033,8048,KING,Supermarket,47.679321,-122.17333,,Washington State Department of Health ,-13600272.884118576,6053670.125452543
321187,Central Co-op,1600 E Madison St,,Seattle,WA,98122,2731,KING,Supermarket,47.615154,-122.31126,,,-13615627.18148369,6043067.320551012
320626,Safeway 1550,7300 Roosevelt Way NE,,Seattle,WA,98115,5663,KING,Supermarket,47.682217,-122.31745,,Washington State Department of Health ,-13616316.2491317,6054148.96111277
412067,Safeway 3540,21401 Pacific Hwy S,,Des Moines,WA,98198,6074,KING,Supermarket,47.409645,-122.29826,,Washington State Department of Health ,-13614180.028103376,6009196.782984356
515370,QFC 819,18921 Bothell Way NE,,Bothell,WA,98011,1934,KING,Super Store,47.765205,-122.21169,,,-13604543.099785402,6067881.824463786
412129,Walgreens 04898,6330 35th Ave SW,,Seattle,WA,98126,3004,KING,Other,47.545536,-122.37599,,,-13622832.892122738,6031578.5105641745
412904,Walgreens 6890,500 15th Ave E,,Seattle,WA,98112,4513,KING,Other,47.623409,-122.31259,,,-13615775.236406446,6044430.627670338
413365,Safeway 792,17023 SE 272nd St,,Covington,WA,98042,4948,KING,Supermarket,47.356586,-122.11455,,Washington State Department of Health ,-13593729.524449743,6000473.457258461
416275,Safeway 2734,10020 NE 137th St,,Kirkland,WA,98034,5221,KING,Supermarket,47.723137,-122.20714,,Washington State Department of Health ,-13604036.596102294,6060917.673011124
413742,Papa Murphy's WA-158,9743 Holman Rd NW,,Seattle,WA,98117,2042,KING,Specialty Store,47.701214,-122.36457,,,-13621561.62353788,6057290.6566860005
404477,EURASIA DELI HOUSE,25650 102nd Pl SE,,Kent,WA,98030,6410,KING,Grocery Store,47.371109,-122.20394,,,-13603680.373731757,6002860.28258857
405252,Papa Murphy's WA-016,709 228th Ave NE,,Sammamish,WA,98074,7223,KING,Specialty Store,47.61557,-122.03626,,,-13585014.321515542,6043136.017492009
501310,Papa Murphy's WA-049,1500 145th Pl SE,Ste 4,Bellevue,WA,98007,5500,KING,Specialty Store,47.597046,-122.14985,,,-13597659.102474747,6040077.551463536
518405,HILLTOP RED APPLE MARKET,2701 Beacon Ave S,,Seattle,WA,98144,5127,KING,Super Store,47.579308,-122.31225,,,-13615737.387779577,6037149.875227777
519050,Safeway 494,152 Roosevelt Ave E,,Enumclaw,WA,98022,    ,KING,Supermarket,47.198174,-121.97993,,Washington State Department of Health ,-13578743.694599153,5974481.315917571
519397,QFC 872,9999 Holman Rd NW,,Seattle,WA,98117,2041,KING,Super Store,47.701515,-122.3626,,,-13621342.324141016,6057340.444829684
519546,QFC 816,600 NW Richmond Beach Rd,,Shoreline,WA,98177,3122,KING,Super Store,47.765942,-122.36375,,,-13621470.341555428,6068003.881389306
516504,Balkan Market Ltd,146 SW 153rd St,,Burien,WA,98166,2312,KING,Grocery Store,47.466049,-122.33533,,,-13618306.641627084,6018479.695539444
516017,Goodwin Enterprises Inc,6329 15th Ave NE,,Seattle,WA,98115,6803,KING,Grocery Store,47.675671,-122.31198,,,-13615707.331517063,6053066.658421587
1658901,Emanuel 76 In Normandy Park,19803 1st Ave S,Ste 102,Normandy Park,WA,98148,2410,KING,Convenience Store,47.425133,-122.33588,,,-13618367.867347023,6011744.791301882
519823,Safeway 1965,9262 Rainier Ave S,,Seattle,WA,98118,5570,KING,Supermarket,47.521019,-122.26815,,Washington State Department of Health ,-13610828.198235594,6027536.191083822
505928,QFC 828,11224 NE 124th St,,Kirkland,WA,98034,4301,KING,Super Store,47.712387,-122.19122,,,-13602264.389808865,6059138.965476437
520378,Safeway 1885,516 1st Ave W,,Seattle,WA,98119,3926,KING,Supermarket,47.624279,-122.35799,,Washington State Department of Health ,-13620829.141288461,6044574.32006367
542905,QFC 826,15600 NE 8th St,Ste K1,Bellevue,WA,98008,3999,KING,Super Store,47.620701,-122.1304,,,-13595493.938378816,6043983.379756533
345192,Safeway 496,15000 NE 24th St,,Redmond,WA,98052,5531,KING,Supermarket,47.632668,-122.14084,,Washington State Department of Health ,-13596656.1138627,6045960.0008218335
540312,Safeway 1143,8340 15th Ave NW,,Seattle,WA,98117,3603,KING,Supermarket,47.690178,-122.37617,,Washington State Department of Health ,-13622852.929631082,6055465.40013603
428277,Papa Murphy's WA-156,6945 Coal Creek Pkwy SE,,Newcastle,WA,98059,3136,KING,Specialty Store,47.53875,-122.16759,,,-13599633.91024142,6030459.457747774
389539,LA CHIQUITA CARNICERIA,1314 Union Ave NE,Ste 9,Renton,WA,98059,3959,KING,Grocery Store,47.504578,-122.16363,,,-13599193.08505788,6024826.486212722
432916,7-ELEVEN 26818 F,19023 International Blvd,,Seatac,WA,98188,5207,KING,Convenience Store,47.432308,-122.29587,,,-13613913.974520382,6012925.440522667
544318,Fred Meyer 215,25250 Pacific Hwy S,,Kent,WA,98032,6539,KING,Super Store,47.374268,-122.29813,,,-13614165.556569574,6003379.544800219
428372,Safeway 555,630 228th Ave NE,,Sammamish,WA,98074,7241,KING,Supermarket,47.615261,-122.03546,,Washington State Department of Health ,-13584925.265922906,6043084.990144684
431923,Safeway 219,3900 S Othello St,,Seattle,WA,98118,3543,KING,Supermarket,47.537067,-122.28332,,Washington State Department of Health ,-13612516.914910926,6030181.943191623
389743,Trader Joe's 133,15868 1st Ave S,,Burien,WA,98148,1298,KING,Supermarket,47.460094,-122.33138,,,-13617866.929638451,6017499.157701202
433882,South Sea Grocery,917 E Jefferson St,,Seattle,WA,98122,5333,KING,Grocery Store,47.606171,-122.31995,,,-13616594.547858683,6041584.02928003
429714,Walgreens 06304,27112 132nd Ave SE,,Kent,WA,98042,7228,KING,Other,47.358379,-122.16543,,,-13599393.460141307,6000768.097588112
1637537,Culinary Convenience,6000 16th Ave SW,,Seattle,WA,98106,1499,KING,Convenience Store,47.547222,-122.35187,,,-13620147.866004806,6031856.5647217715
430507,B & E Meats & Seafood 1,15003 Ambaum Blvd SW,,Burien,WA,98166,1849,KING,Specialty Store,47.468266,-122.34635,,,-13619533.382415624,6018844.77049597
431095,QFC 847,1401 Broadway,,Seattle,WA,98122,3854,KING,Super Store,47.61327,-122.32084,,,-13616693.62220549,6042756.2095160615
388976,Trader Joe's 134,1758 S 320th St,,Federal Way,WA,98003,5412,KING,Supermarket,47.316902,-122.31012,,,-13615500.277264185,5993954.821116843
399830,RITE AID 5216,8500 35th Ave NE,,Seattle,WA,98115,3606,KING,Other,47.690651,-122.29021,,,-13613283.90620249,6055543.622219108
403269,Safeway 1923,9620 28th Ave SW,,Seattle,WA,98126,4102,KING,Supermarket,47.51717,-122.36858,,Washington State Department of Health ,-13622008.014695961,6026901.746376873
402136,Carniceria El Paisano,9629 15th Ave SW,,Seattle,WA,98106,2821,KING,Grocery Store,47.516575,-122.35432,,,-13620420.598757248,6026803.674510353
627127,FRED MEYER 019,801 Auburn Way N,,Auburn,WA,98002,4164,KING,Super Store,47.31496,-122.22421,,,-13605936.819810137,5993635.946921786
411237,Walgreens 03632,2400 S Jackson St,,Seattle,WA,98144,2364,KING,Other,47.599583,-122.30086,,,-13614469.45877944,6040496.367198714
408934,CARPINITO BROTHERS,1148 Central Ave N,,Kent,WA,98032,2013,KING,Other,47.395084,-122.22739,,,-13606290.815790856,6006801.963338365
565776,Trader Joe's 132,12520 Totem Lake Blvd NE,Ste 116,Kirkland,WA,98034,5085,KING,Supermarket,47.710621,-122.18035,,,-13601054.346943945,6058846.796149089
563928,QFC 858,1531 NE 145th St,,Seattle,WA,98155,7205,KING,Super Store,47.733143,-122.31053,,,-13615545.918255411,6062573.607299268
306018,FRED MEYER 053,16735 SE 272nd St,,Covington,WA,98042,4942,KING,Super Store,47.356316,-122.11852,,,-13594171.462828195,6000429.089531827
303324,7-Eleven 19911D,14340 124th Ave NE,,Kirkland,WA,98034,1414,KING,Convenience Store,47.730865,-122.17485,,,-13600442.089744579,6062196.583695793
363331,Safeway 1966,13101 SE Kent Kangley Rd,,Kent,WA,98030,7915,KING,Supermarket,47.356674,-122.16681,,Washington State Department of Health ,-13599547.0810386,6000487.917899898
393429,Shoreline Central Market 212,15505 Westminster Way N,,Shoreline,WA,98133,5927,KING,Super Store,47.742905,-122.34985,,,-13619923.000633404,6064189.467686835
363392,QFC 869,4500 Wallingford Ave N,,Seattle,WA,98103,7569,KING,Super Store,47.661854,-122.33595,,,-13618375.659711374,6050782.628642841
391198,Papa Murphy's Pizza WA-120,16783 SE 272nd St,,Covington,WA,98042,4984,KING,Specialty Store,47.357838,-122.11591,,,-13593880.918957224,6000679.195017292
363627,Waynes Fruits & Vegetables,144 SW 152nd St,,Burien,WA,98166,2306,KING,Other,47.466908,-122.33587,,,-13618366.754152112,6018621.14584914
395675,WinCo Foods 050,21100 91st Pl S,,Kent,WA,98031,2413,KING,Supermarket,47.414623,-122.21902,,,-13605359.071652917,6010015.656923954
395745,ALLENTOWN SUPERETTE,12404 42nd Ave S,,Tukwila,WA,98168,2526,KING,Convenience Store,47.492168,-122.27981,,,-13612126.18349824,6022781.708083645
595150,QFC 806,8421 SE 68th St,,Mercer Island,WA,98040,5235,KING,Super Store,47.541077,-122.226,,,-13606136.081698654,6030843.177930764
366873,Safeway 1563,200 S 3rd St,,Renton,WA,98057,2031,KING,Supermarket,47.480221,-122.21431,,Washington State Department of Health ,-13604834.756851282,6020813.674250514
631062,Safeway 1664,138 SW 148th St,,Burien,WA,98166,1924,KING,Supermarket,47.471554,-122.33669,,Washington State Department of Health ,-13618458.036134563,6019386.236134612
447538,Franz Bakery Outlet 9024,2006 S Weller St,,Seattle,WA,98144,2237,KING,Specialty Store,47.597507,-122.30487,,,-13614915.84993752,6040153.653246581
446285,QFC 829,460 E North Bend Way,,North Bend,WA,98045,8270,KING,Super Store,47.493313,-121.78046,,,-13556538.795770623,6022970.3478756845
446419,YAKIMA FRUIT MARKET AND NURSERY,17321 Bothell Way NE,,Bothell,WA,98011,1903,KING,Other,47.753326,-122.21262,,,-13604646.626911843,6065914.743834789
630672,QFC 839,7823 SE 28th St,,Mercer Island,WA,98040,2902,KING,Super Store,47.585453,-122.23284,,,-13606897.507015679,6038164.001857683
450053,Safeway 1508,3820 Rainier Ave S,,Seattle,WA,98118,1159,KING,Supermarket,47.569267,-122.29023,,Washington State Department of Health ,-13613286.132592307,6035493.036875861
602402,99 Ranch Market 91,18230 E Valley Hwy,Ste 100,Kent,WA,98032,1236,KING,Super Store,47.438274,-122.2229,,,-13605790.991277196,6013907.27086612
600309,Safeway 533,19150 NE Woodinville Duvall Rd,,Woodinville,WA,98077,9477,KING,Supermarket,47.756393,-122.08099,,Washington State Department of Health ,-13589993.642338723,6066422.574914538
632232,Safeway 1555,1207 S 320th St,,Federal Way,WA,98003,5339,KING,Supermarket,47.315121,-122.31781,,Washington State Department of Health ,-13616356.324148385,5993662.382493486
717051,RITE AID  5172,1509 Auburn Way S,,Auburn,WA,98002,6739,KING,Other,47.294952,-122.21448,,,-13604853.681164715,5990351.33812481
424001,7-ELEVEN 25525 D,1550 NW Market St,,Seattle,WA,98107,5211,KING,Convenience Store,47.66901,-122.37858,,,-13623121.209603893,6051965.48122399
424185,QFC 811,1600 W Dravus St,,Seattle,WA,98119,1721,KING,Super Store,47.649372,-122.37789,,,-13623044.399155246,6048719.801727113
419738,PHNOM PENH MARKET,7123 Martin Luther King Jr Way S,,Seattle,WA,98118,3521,KING,Grocery Store,47.538071,-122.28205,,,-13612375.539157618,6030347.4944752045
424598,Trader Joe's 130,1700 E Madison St,,Seattle,WA,98122,2798,KING,Supermarket,47.615837,-122.30961,,,-13615443.504323881,6043180.109326233
421554,Walgreens 07594,1416 Harvey Rd,,Auburn,WA,98002,3308,KING,Other,47.320465,-122.22046,,,-13605519.37171966,5994539.8921484975
434057,Walgreens 04157,859 NE Northgate Way,,Seattle,WA,98125,7311,KING,Other,47.708256,-122.31822,,,-13616401.965139613,6058455.542992606
420582,QFC 838,14130 Juanita Dr NE,,Kirkland,WA,98034,0127,KING,Super Store,47.729084,-122.24442,,,-13608186.586719068,6061901.828265278
721672,Walmart 2571,1900 S 314Th St,,Federal Way,WA,98003,    ,KING,Super Store,47.320576,-122.30861,,,-13615332.184833087,5994558.119805669
508462,Safeway 490,1645 140th Ave NE,,Bellevue,WA,98005,2320,KING,Supermarket,47.624557,-122.1537,,Washington State Department of Health ,-13598087.682514302,6044620.23606825
508927,DONG HING MARKET,1001 S Jackson St,,Seattle,WA,98104,3015,KING,Supermarket,47.599152,-122.3194,,,-13616533.322138745,6040425.214965844
510029,QFC 849,2707 Rainier Ave S,,Seattle,WA,98144,5332,KING,Super Store,47.579021,-122.29984,,,-13614355.912898831,6037102.5137202395
690458,BERT'S RED APPLE MARKET,1801 41st Ave E,,Seattle,WA,98112,3211,KING,Other,47.634869,-122.27972,,,-13612116.164744068,6046323.5950957425
426778,Walmart 2385,762 Outlet Collection Dr SW,,Auburn,WA,98001,6582,KING,Super Store,47.301441,-122.24094,,,-13607799.194891108,5991416.467134925
493626,Safeway 1528,460 SW Mt SI Blvd,,North Bend,WA,98045,8291,KING,Supermarket,47.486958,-121.79253,,Washington State Department of Health ,-13557882.422024496,6021923.407772365
461877,Walmart 2516,743 Rainier Ave S,,Renton,WA,98057,3204,KING,Super Store,47.47213,-122.22108,,,-13605588.389803952,6019481.094915982
462717,QFC 824,2902 228th Ave SE,,Issaquah,WA,98075,9516,KING,Super Store,47.584034,-122.03544,,,-13584923.03953309,6037929.809726612
460669,MARVEL FOOD AND DELI,615 C St SW,,Auburn,WA,98001,5900,KING,Super Store,47.301388,-122.23326,,,-13606944.261201814,5991407.766984908
568718,Stop N Shop,41604 264th Ave SE,,Enumclaw,WA,98022,8627,KING,Convenience Store,47.227879,-121.98967,,,-13579827.946439482,5979349.371095363
605958,Walgreens 04156,12405 NE 85th St,,Kirkland,WA,98033,8032,KING,Other,47.679302,-122.17492,,,-13600449.882108934,6053666.984008002
570053,Safeway 423,7340 35th Ave NE,,Seattle,WA,98115,5919,KING,Supermarket,47.682873,-122.29043,,Washington State Department of Health ,-13613308.396490466,6054257.430341628
1599120,Ascend Chevron,8506 5th Ave NE,,Seattle,WA,98115,2918,KING,Convenience Store,47.690647,-122.32269,,,-13616899.563263457,6055542.960718604
559439,QFC 807,2746 NE 45th St,,SEATTLE,WA,98105,    ,KING,Super Store,47.662189,-122.29633,,,-13613965.181486145,6050837.998923158
559641,FRED MEYER 664,17667 NE 76th St,,Redmond,WA,98052,4994,KING,Super Store,47.671593,-122.10401,,,-13592556.217016786,6052392.478607095
556422,Safeway 1551,1410 E John St,,Seattle,WA,98112,5218,KING,Supermarket,47.619968,-122.31392,,Washington State Department of Health ,-13615923.2913292,6043862.3229131
555341,Duvall Family Grocer,15215 Brown Ave NE,,Duvall,WA,98019,5015,KING,Supermarket,47.738132,-121.98607,,,-13579427.196272625,6063399.376400068
556536,Des Moines Market. ,820 S Kent Des Moines Rd,,Des Moines,WA,98198,8101,KING,Convenience Store,47.397171,-122.32298,,,-13616931.845915787,6007145.167578768
1573338,Continental Spices,7819 Aurora Ave N,,Seattle,WA,98103,4753,KING,Convenience Store,47.686016,-122.34482,,,-13619363.063594712,6054777.1425376125
1575103,7-Eleven #19042a,7314 Aurora Ave N,,Seattle,WA,98103,5357,KING,Convenience Store,47.68261,-122.34402,,,-13619274.008002076,6054213.9432766205
468633,QFC 894,425 Urban Plz,,Kirkland,WA,98033,7468,KING,Super Store,47.67754,-122.19936,,,-13603170.530463923,6053375.661334233
555078,SEATTLE SUPER MARKET,4801 Beacon Ave S,,Seattle,WA,98108,1502,KING,Super Store,47.559116,-122.30455,,,-13614880.227700466,6033818.3705682615
495597,Town & Country Market ,1400 NW 56th St,,Seattle,WA,98107,3725,KING,Super Store,47.669842,-122.3743,,,-13622644.762183297,6052103.01736922
488945,VASHON THRIFTWAY,9740 SW Bank Rd,,Vashon,WA,98070,4982,KING,Super Store,47.448189,-122.45948,,,-13632126.956409069,6015539.2382113235
497906,Walgreens 04627,275 Rainier Ave S,,Renton,WA,98057,2002,KING,Other,47.480103,-122.21729,,,-13605166.488933846,6020794.238297974
572391,ROTARY GROCERY,1503 Pike Pl,,Seattle,WA,98101,1526,KING,Convenience Store,47.608692,-122.34104,,,-13618942.275919516,6042000.276222537
572458,PCC Community Market Issaquah 10,1810 12th Ave NW,,Issaquah,WA,98027,8110,KING,Supermarket,47.551174,-122.05723,,,-13587348.691237476,6032508.361361065
1665915,CVS Pharmacy 11646,4706 42nd Ave SW,,Seattle,WA,98116,4500,KING,Other,47.560688,-122.38464,,,-13623795.8057181,6034077.6908203205
724079,Walgreens 03840,14656 Ambaum Blvd SW,,Burien,WA,98166,1810,KING,Other,47.470844,-122.34633,,,-13619531.156025808,6019269.310942326
799246,Whole Foods Market 10216,2210 Westlake Ave,,Seattle,WA,98121,2713,KING,Super Store,47.617901,-122.33786,,,-13618588.279938791,6043520.961664722
1214734,Wow Market,1312 Minor Ave,,Seattle,WA,98101,2877,KING,Convenience Store,47.612671,-122.32632,,,-13617303.653015036,6042657.297050202
532141,Safeway 1586,12318 15th Ave NE,,Seattle,WA,98125,4820,KING,Supermarket,47.71891,-122.31264,,Washington State Department of Health ,-13615780.802380985,6060218.22488047
466274,QFC 808,10116 NE 8th St,,Bellevue,WA,98004,4148,KING,Super Store,47.618504,-122.20549,,,-13603852.918942487,6043620.544611457
466383,Ken's Market,7231 Greenwood Ave N,,Seattle,WA,98103,5039,KING,Supermarket,47.681595,-122.35562,,,-13620565.31409528,6054046.115024444
607413,RITE AID  5189,20518 108th Ave SE,,Kent,WA,98031,1542,KING,Other,47.418087,-122.19529,,,-13602717.460136395,6010585.525687086
614011,QFC 821,1540 NW Gilman Blvd,,Issaquah,WA,98027,5309,KING,Super Store,47.545734,-122.06003,,,-13587660.385811696,6031611.164147668
613513,Walgreens 03788,14510 Aurora Ave N,,Shoreline,WA,98133,6525,KING,Other,47.73494,-122.34454,,,-13619331.894137288,6062871.033956202
611242,7-ELEVEN 17355 E,15 148th Ave NE,,Bellevue,WA,98007,4942,KING,Convenience Store,47.610069,-122.14308,,,-13596905.469522078,6042227.643695235
528258,Walgreens 03604,5409 15th Ave NW,,Seattle,WA,98107,3810,KING,Other,47.66811,-122.37627,,,-13622864.06158016,6051816.706612394
524049,WEST SEATTLE THRIFTWAY #603,4201 SW Morgan St,,Seattle,WA,98136,1826,KING,Other,47.544792,-122.38613,,,-13623961.67175938,6031455.813352929
576010,Walgreens 05950,4412 Rainier Ave S,,Seattle,WA,98118,1373,KING,Other,47.56361,-122.28727,,,-13612956.62689956,6034559.730436523
576134,Safeway 1624,735 NW Gilman Blvd Ste B,,Issaquah,WA,98027,8996,KING,Supermarket,47.541748,-122.04892,,Washington State Department of Health ,-13586423.626268981,6030953.828383969
620280,7-ELEVEN 14463 E,9041 Delridge Way SW,,Seattle,WA,98106,2335,KING,Convenience Store,47.52177,-122.3597,,,-13621019.497617716,6027659.986579526
620691,FRED MEYER 00658,6100 E Lake Sammamish Pkwy SE,,Issaquah,WA,98029,8926,KING,Super Store,47.548748,-122.03887,,,-13585304.86538651,6032108.239481887
549350,7-Eleven 14481 E,1539 21st St SE,,Auburn,WA,98002,7869,KING,Convenience Store,47.290176,-122.20831,,,-13604166.839906521,5989567.470914736
621178,Safeway 526,14444 124th Ave NE,,Kirkland,WA,98034,4801,KING,Supermarket,47.732311,-122.17556,,Washington State Department of Health ,-13600521.126583043,6062435.904053834
548625,FRED MEYER 391,12221 120th Ave NE,,Kirkland,WA,98034,6905,KING,Super Store,47.709373,-122.18348,,,-13601402.776950125,6058640.33138301
759981,Bartell Drugs 28,14130 Juanita Dr NE,Ste 107,Kirkland,WA,98034,0127,KING,Other,47.729084,-122.24442,,,-13608186.586719068,6061901.828265278
548640,Safeway 3501,2109 SW 336th St,,Federal Way,WA,98023,2847,KING,Supermarket,47.299686,-122.36187,,Washington State Department of Health ,-13621261.060912736,5991128.381898822
1646161,Auburn Chevron 59082,1501 Auburn Way N,,Auburn,WA,98002,3307,KING,Convenience Store,47.321201,-122.22231,,,-13605725.31277763,5994660.75372535
805005,Target Store T-0995,17700 NE 76th St,,Redmond,WA,98052,3300,KING,Super Store,47.672543,-122.10341,,,-13592489.42532231,6052549.52903094
1638023,Belltown Grocery,2221 3rd Ave,,Seattle,WA,98121,2018,KING,Convenience Store,47.614193,-122.34447,,,-13619324.101772936,6042908.626101337
1641835,Tukwila Village Farmers Market,14350 Tukwila International Blvd,,Tukwila,WA,98168,4164,KING,Farmers and Markets,47.474739,-122.28305,,,-13612486.858648412,6019910.772104182
1634533,Tukwila Shell,14905 Interurban Ave S,,Tukwila,WA,98168,4621,KING,Convenience Store,47.469311,-122.25365,,,-13609214.065619087,6019016.856724206
1271203,Seward Park Market,9436 Rainier Ave S,,Seattle,WA,98118,5504,KING,Convenience Store,47.520267,-122.26344,,,-13610303.883433957,6027412.232522874
1399344,Midway 76,25915 Pacific Hwy S,,Des Moines,WA,98198,9021,KING,Convenience Store,47.369316,-122.30347,,,-13614760.00265041,6002565.571149619
538368,Safeway 531,101 Auburn Way S,,Auburn,WA,98002,5425,KING,Supermarket,47.305946,-122.22577,,Washington State Department of Health ,-13606110.478215773,5992156.011767201
536873,Papa Murphy's WA-111,17171 Bothell Way NE,Unit 1,LAKE FOREST PARK,WA,98155,5534,KING,Specialty Store,47.753979,-122.28002,,,-13612149.560591308,6066022.864474863
536970,Safeway 366,2725 NE Sunset Blvd,,Renton,WA,98056,3137,KING,Supermarket,47.499355,-122.18119,,Washington State Department of Health ,-13601147.855316209,6023965.840997174
588061,QFC 866,11100 Roosevelt Way NE,,Seattle,WA,98125,6234,KING,Super Store,47.709381,-122.31781,,,-13616356.324148385,6058641.654859356
587413,NEW AN DONG,601 S King St,Ste 205,Seattle,WA,98104,2916,KING,Grocery Store,47.598343,-122.32598,,,-13617265.804388167,6040291.661661264
992179,Dollar Tree 4567,1549 NE 145th St,,Seattle,WA,98155,7205,KING,Other,47.733921,-122.31116,,,-13615616.049534611,6062702.375065002
617114,SHELL MADISON EXPRESS LANE,1701 E Madison St,,Seattle,WA,98122,2732,KING,Convenience Store,47.615734,-122.30973,,,-13615456.862662775,6043163.100090101
707186,Trader Joe's 135,1916 Queen Anne Ave N,,Seattle,WA,98109,2548,KING,Supermarket,47.636219,-122.35692,,,-13620710.029433312,6046546.615971742
580800,EL MERCADO LATINO,1807 Howard Rd,,Auburn,WA,98002,6353,KING,Other,47.292458,-122.21249,,,-13604632.155378038,5989941.998300564
1665918,CVS Pharmacy 11647,2345 42nd Ave SW,,Seattle,WA,98116,2513,KING,Other,47.582043,-122.38551,,,-13623892.65367509,6037601.225268308
619066,Safeway 477,28810 Military Rd S,,Federal Way,WA,98003,7913,KING,Supermarket,47.342827,-122.30109,,Washington State Department of Health ,-13614495.062262323,5998212.79969212
580179,PLAID PANTRY 309,720 Taylor Ave N,,Seattle,WA,98109,4221,KING,Convenience Store,47.626019,-122.34624,,,-13619521.137271637,6044861.7120249905
529116,7-Eleven 14402 D,8316 164th Ave NE,,Redmond,WA,98052,3803,KING,Convenience Store,47.676998,-122.12157,,,-13594510.987275114,6053286.0510033835
626034,7-ELEVEN 27311 C,1481 W Meeker St,,Kent,WA,98032,4394,KING,Convenience Store,47.381275,-122.25317,,,-13609160.632263508,6004531.4349755915
710246,7-Eleven 23109D,362 Denny Way,,Seattle,WA,98109,4912,KING,Convenience Store,47.618618,-122.3493,,,-13619861.774913466,6043639.371367291
709067,Walgreens 07355,3011 NE Sunset Blvd,,Renton,WA,98056,3101,KING,Other,47.502689,-122.17696,,,-13600676.973870153,6024515.207170747
711600,FRED MEYER 028,14300 1st Ave S Ste 3,,Burien,WA,98168,3490,KING,Super Store,47.475266,-122.33162,,,-13617893.64631624,6019997.566521534
584163,QFC 860,8867 161st Ave NE,,Redmond,WA,98052,3585,KING,Super Store,47.680836,-122.12652,,,-13595062.01875454,6053920.618002172
709852,RITE AID 5190,10407 SE 256th St,,Kent,WA,98030,6366,KING,Other,47.37252,-122.20178,,,-13603439.923631642,6003092.212578452
664407,QFC 822,3550 128th SE,,Bellevue,WA,98006,6126,KING,Super Store,47.578983,-122.16906,,,-13599797.549892887,6037096.242878078
715261,7-ELEVEN 14443 D,14462 34th Ave S,,Tukwila,WA,98168,4302,KING,Convenience Store,47.472683,-122.28928,,,-13613180.379076054,6019572.166911758
644520,Safeway 3500,6850 NE Bothell Way,,Kenmore,WA,98028,2404,KING,Supermarket,47.75927,-122.24762,,Washington State Department of Health ,-13608542.809089607,6066898.973176843
645750,7-ELEVEN 17463C,104 SW 312th St,,Federal Way,WA,98023,4609,KING,Convenience Store,47.322823,-122.33511,,,-13618282.15133911,5994927.11493805
665098,Franz Bakery Outlet 9026,2901 6th Ave S,,Seattle,WA,98134,2103,KING,Specialty Store,47.576962,-122.32671,,,-13617347.067616448,6036762.739645971
635507,CIRCLE FOOD STORE,2000 Benson Rd S,Ste 140,Renton,WA,98055,4498,KING,Convenience Store,47.462288,-122.20367,,,-13603650.317469243,6017860.404227333
765434,CITY MARKET,1722 Bellevue Ave,,Seattle,WA,98122,2017,KING,Grocery Store,47.617012,-122.32645,,,-13617318.124548841,6043374.149099977
640690,MARKETIME FOODS,4416 Fremont Ave N,,Seattle,WA,98103,7226,KING,Other,47.6605,-122.34963,,,-13619898.51034543,6050558.837159893
639260,Muckleshoot Market & Deli,2802 Auburn Way S,,Auburn,WA,98092,7960,KING,Convenience Store,47.288326,-122.19127,,,-13602269.955783406,5989263.856279109
725112,WinCo Foods 043,160 SW CAMPUS DR,,FEDERAL WAY,WA,98023,    ,KING,Supermarket,47.29258,-122.33591,,,-13618371.206931746,5989962.021692138
646330,PCC Community Market Greenlake Aurora 9,7504 Aurora Ave N,,Seattle,WA,98103,4748,KING,Supermarket,47.683537,-122.34409,,,-13619281.800366431,6054367.223755036
667071,QFC 874,1510 145th Pl SE,,Bellevue,WA,98007,5593,KING,Super Store,47.597046,-122.14985,,,-13597659.102474747,6040077.551463536
807268,A St Arco,305 A St SE,,Auburn,WA,98002,5428,KING,Convenience Store,47.304558,-122.22911,,,-13606482.285315022,5991928.149788917
807549,RITE AID 6455,17615 140th Ave SE,,Renton,WA,98058,6828,KING,Other,47.444649,-122.15425,,,-13598148.908234237,6014956.53377787
727609,7-ELEVEN #20188E 20188,13131 SE 240th St,,Kent,WA,98031,5021,KING,Convenience Store,47.386532,-122.1659,,,-13599445.78030198,6005395.740812049
809164,Walmart 3794,34520 16Th Ave S,,Federal Way,WA,98003,    ,KING,Super Store,47.292576,-122.31016,,,-13615504.730043817,5989961.365186763
760038,BARTELL DRUGS 47,22117 SE 237th St,,Maple Valley,WA,98038,8533,KING,Other,47.389069,-122.0463,,,-13586131.969203105,6005812.881009851
759995,BARTELL DRUGS 41,14901 4th Ave SW,Ste 100,Burien,WA,98166,1906,KING,Other,47.469032,-122.33891,,,-13618705.165404122,6018970.911836606
759984,BARTELL DRUGS 31,2700 NE University Village St,,Seattle,WA,98105,5016,KING,Other,47.663387,-122.29746,,,-13614090.972510744,6051036.012564328
769035,Papa Murphy's WA-186,23515 NE Novelty Hill Rd,Ste 205,Redmond,WA,98053,1996,KING,Specialty Store,47.6991,-122.02477,,,-13583735.260566324,6056940.989915274
759985,BARTELL DRUGS 32,27055 Pacific Hwy S,,Des Moines,WA,98198,9250,KING,Other,47.359337,-122.31106,,,-13615604.91758553,6000925.528036691
1591723,Tonnemaker Family Orchard,16211 140th Pl NE,,Woodinville,WA,98072,6984,KING,Farmers and Markets,47.745205,-122.14988,,,-13597662.44205947,6064570.220549326
591042,Trader Joe's 137,4555 Roosevelt Way NE,,Seattle,WA,98105,1736,KING,Supermarket,47.662998,-122.31749,,,-13616320.701911332,6050971.715483135
872438,7-Eleven 27304B 27304B,13335 100th Ave NE,,Kirkland,WA,98034,5203,KING,Convenience Store,47.720676,-122.20781,,,-13604111.180161126,6060510.440689195
782598,AWERS,12832 NE 14th Pl,,Bellevue,WA,98005,2208,KING,Grocery Store,47.623276,-122.16831,,,-13599714.060274793,6044408.661112901
780652,Walgreens 09423,23003 Pacific Hwy S,,Des Moines,WA,98198,    ,KING,Other,47.395142,-122.29547,,,-13613869.446724065,6006811.501173872
693862,QFC 863,1009 Monroe Ave,,Enumclaw,WA,98022,2993,KING,Super Store,47.200657,-121.99055,,,-13579925.90759138,5974888.125525669
678726,FRED MEYER 179,13000 Lake City Way NE,,Seattle,WA,98125,4429,KING,Super Store,47.724033,-122.29207,,,-13613490.960455365,6061065.942786544
678773,QFC 871,4800 NE 4th St,,Renton,WA,98059,4820,KING,Super Store,47.48991,-122.15491,,,-13598222.379098162,6022409.712581153
695185,West Seattle Farmers Market,4400 SW Alaska St,,Seattle,WA,98116,4642,KING,Farmers and Markets,47.561275,-122.38859,,Washington State Department of Health ,-13624235.517706733,6034174.525505089
678994,Safeway 1062,4754 42nd Ave SW,,Seattle,WA,98116,4553,KING,Supermarket,47.560291,-122.38449,,Washington State Department of Health ,-13623779.107794482,6034012.200174954
694550,B & E MEATS & SEAFOOD #2,22501 Marine View Dr S,,Des Moines,WA,98198,6862,KING,Specialty Store,47.400227,-122.325,,,-13617156.71128719,6007647.747045365
682025,QFC 840,4570 Klahanie Dr SE,,Sammamish,WA,98029,5812,KING,Super Store,47.565704,-122.0034,,,-13581356.363048073,6034905.192203413
682312,VALLEY HARVEST,28855 Military Rd S,,Federal Way,WA,98003,7912,KING,Super Store,47.341778,-122.30212,,,-13614609.72133784,5998040.46906028
772458,LA HUERTA INTERNATIONAL MARKET,405 E Smith St,,Kent,WA,98030,4545,KING,Supermarket,47.383629,-122.22923,,,-13606495.64365392,6004918.44656366
1653338,7-Eleven 14355A,9126 Roosevelt Way NE,,Seattle,WA,98115,2840,KING,Convenience Store,47.695553,-122.31717,,,-13616285.07967428,6056354.32922233
776777,KENNYDALE FUEL,1616 NE 30th St,,Renton,WA,98056,2241,KING,Convenience Store,47.518478,-122.1976,,,-13602974.608160127,6027117.343566205
875014,White Center Mini Mart and Gas Station,1505 SW Roxbury St,,Seattle,WA,98106,2840,KING,Convenience Store,47.517353,-122.35438,,,-13620427.277926696,6026931.909880451
1524157,Jacksons Food Stores 621,10801 NE 68th St,,Kirkland,WA,98033,7100,KING,Convenience Store,47.666378,-122.19581,,,-13602775.346271606,6051530.405356416
658533,Olson's Meats & Smokehouse,20104 SE 436th St,,Enumclaw,WA,98022,8541,KING,Specialty Store,47.21067,-122.07356,,,-13589166.538522128,5976528.828054919
656148,Safeway 1186,27035 Pacific Hwy S,,Des Moines,WA,98198,9250,KING,Supermarket,47.359337,-122.31106,,Washington State Department of Health ,-13615604.91758553,6000925.528036691
784178,Target Store T-1947,2201 S Commons,,Federal Way,WA,98003,6023,KING,Super Store,47.313076,-122.30522,,,-13614954.811759299,5993326.607459593
1585518,El Huarache Loco,10214 SE 240th St,Ste D,Kent,WA,98031,5123,KING,Grocery Store,47.387657,-122.20403,,,-13603690.392485928,6005580.713786742
759971,Bartell Drugs 21,6619 132nd Ave NE,,Kirkland,WA,98033,8627,KING,Other,47.665066,-122.16586,,,-13599441.327522349,6051313.536825789
785787,7 ELEVEN 26055B,300 N 125th St,,Seattle,WA,98133,8124,KING,Convenience Store,47.719929,-122.35499,,,-13620495.18281608,6060386.835171735
1604660,Pit Stop Express,406 Ellingson Rd,,Pacific,WA,98047,1002,KING,Convenience Store,47.273186,-122.25645,,,-13609525.760193313,5986779.538711486
1000358,Rocket #7960 7960,5011 S 288th St,,Auburn,WA,98001,2828,KING,Convenience Store,47.343372,-122.271,,,-13611145.458784355,5998302.334117547
1000362,Rocket #5928 5928,601 Auburn Way S,,Auburn,WA,98002,6031,KING,Convenience Store,47.301708,-122.226,,,-13606136.081698654,5991460.296325204
1000411,Rocket #5485 5485,33800 1st Way S,,Federal Way,WA,98003,6240,KING,Convenience Store,47.298256,-122.32874,,,-13617573.046182757,5990893.652850724
1000413,Rocket #5483 5483,2535 S 320th St,,Federal Way,WA,98003,5443,KING,Convenience Store,47.314659,-122.30019,,,-13614394.874720609,5993586.524112481
1000424,Rocket #1991 1991,17700 Ambaum Blvd S,,Seattle,WA,98148,1700,KING,Convenience Store,47.44455,-122.32864,,,-13617561.914233675,6014940.238370101
811553,Dollar Tree 2921,10432 SE Kent Kangley Rd,,Kent,WA,98030,7624,KING,Other,47.371906,-122.19981,,,-13603220.624234779,6002991.286930097
828244,DK Market,720 Lind Ave SW,,Renton,WA,98057,2305,KING,Super Store,47.472878,-122.22328,,,-13605833.292683696,6019604.281135198
876132,ABC GROCERY,22309 7th Ave S,Ste 1A,Des Moines,WA,98198,6800,KING,Convenience Store,47.401539,-122.32645,,,-13617318.124548841,6007863.523090447
778881,Al-madina Inc,81 S Tobin St,,Renton,WA,98057,5311,KING,Other,47.483654,-122.21651,,,-13605079.659731027,6021379.147810644
778230,Gambia International,5903 Rainier Ave S,,Seattle,WA,98118,2723,KING,Grocery Store,47.549553,-122.27717,,,-13611832.300042547,6032241.006642506
829302,Target Store T-0637,2800 SW Barton St,,Seattle,WA,98126,3975,KING,Super Store,47.521069,-122.3684,,,-13621987.977187619,6027544.433072411
876870,7-Eleven 14439A,34041 Military Rd S,,Auburn,WA,98001,9733,KING,Convenience Store,47.295982,-122.27354,,,-13611428.210290968,5990520.397494304
1647940,Tukwila Farmers Market FFAB,12424 42nd Ave S,,Tukwila,WA,98168,2526,KING,Farmers and Markets,47.491196,-122.27786,,,-13611909.110491196,6022621.573426704
668401,Safeway 1477,1423 NW Market St,,Seattle,WA,98107,3744,KING,Supermarket,47.668633,-122.37389,,Washington State Department of Health ,-13622599.121192073,6051903.16088
787204,PCC Community Market Redmond 12,11435 Avondale Rd NE,,Redmond,WA,98052,2801,KING,Supermarket,47.702332,-122.09292,,,-13591321.683863888,6057475.585525898
789745,Ravi Video & Indo Fiji Grocery,23613 104th Ave SE,,Kent,WA,98031,3315,KING,Grocery Store,47.390228,-122.20319,,,-13603596.88411366,6006003.453513047
790233,H MART,31217 Pacific Hwy S,,Federal Way,WA,98003,5401,KING,Super Store,47.321857,-122.31529,,,-13616075.799031587,5994768.479593441
814736,Dollar Tree 2487,31014 Pacific Hwy S,,Federal Way,WA,98003,4904,KING,Other,47.323429,-122.31332,,,-13615856.499634724,5995026.633001331
961626,7-Eleven 39637,18010 E Valley Hwy,,Kent,WA,98032,2502,KING,Convenience Store,47.44099,-122.21997,,,-13605464.825169174,6014354.282468873
1662328,CVS Pharmacy 11689,8862 161st Ave NE,Ste 102,Redmond,WA,98052,7553,KING,Other,47.680813,-122.12477,,,-13594867.209645651,6053916.815090606
1006333,Mi Tiendita Latina 3,1403 Auburn Way S,Ste C & D,Auburn,WA,98002,6757,KING,Grocery Store,47.295692,-122.21553,,,-13604970.56663005,5990472.797921294
737653,Walgreens 07700,34008 Hoyt Rd SW,,Federal Way,WA,98023,3208,KING,Other,47.296806,-122.38145,,,-13623440.69654247,5990655.647360906
737719,Walgreens 07136,1350 Garrett St,,Enumclaw,WA,98022,3468,KING,Other,47.200211,-121.98801,,,-13579643.156084765,5974815.052401163
738165,5 Mile Lakeside Grocery,36644 Military Rd S,,Auburn,WA,98001,8866,KING,Convenience Store,47.272705,-122.28156,,,-13612320.992607132,5986700.6232315255
793893,KENMORE GROCERY OUTLET 185,7806 NE Bothell Way,,Kenmore,WA,98028,3553,KING,Supermarket,47.756245,-122.23612,,,-13607262.634945484,6066398.068521336
791887,Albertsons 453,4621 NE Sunset Blvd,,Renton,WA,98059,4005,KING,Supermarket,47.503704,-122.15733,,Washington State Department of Health ,-13598491.772265883,6024682.462648496
791466,Safeway 1444,15100 SE 38th St,,Bellevue,WA,98006,1728,KING,Supermarket,47.576584,-122.1374,,Washington State Department of Health ,-13596273.174814371,6036700.363924166
791598,Albertsons 3418,3925 236th Ave NE,,Redmond,WA,98053,8455,KING,Supermarket,47.645039,-122.02469,,Washington State Department of Health ,-13583726.355007064,6048003.827513731
791612,Albertsons 3408,2550 32nd Ave W,,Seattle,WA,98199,3220,KING,Supermarket,47.64217,-122.3983,,Washington State Department of Health ,-13625316.429962339,6047529.79372336
791614,Albertsons 3416,17171 Bothell Way NE,,Lake Forest Park,WA,98155,4204,KING,Supermarket,47.753979,-122.28002,,Washington State Department of Health ,-13612149.560591308,6066022.864474863
791616,Safeway 4483,4010 A St SE,,Auburn,WA,98002,8642,KING,Supermarket,47.272511,-122.22886,,,-13606454.455442324,5986668.79473781
739511,Walmart 5073,17432 Se 270Th Pl,,Covington,WA,98042,    ,KING,Super Store,47.361034,-122.10842,,,-13593047.135971181,6001204.40715283
1007670,Dollar Tree 4600,1222 Bronson Way N,Ste 250,Renton,WA,98057,5792,KING,Other,47.483635,-122.20142,,,-13603399.848614957,6021376.018085404
792898,Whole Foods Market 10260,17991 Redmond Way,,Redmond,WA,98052,4907,KING,Super Store,47.666092,-122.10136,,,-13592261.220366182,6051483.130196858
792984,Union Store,8131 Rainier Ave S,,Seattle,WA,98118,4446,KING,Grocery Store,47.529381,-122.2702,,,-13611056.40319172,6028914.690464732
793246,QUICK PACK FOOD MART,2616 S Jackson St,,Seattle,WA,98144,2402,KING,Convenience Store,47.599266,-122.2979,,,-13614139.953086691,6040444.034756968
741045,RITE AID 5220,2600 SW Barton St,Ste H1,Seattle,WA,98126,3959,KING,Other,47.521076,-122.36692,,,-13621823.224341244,6027545.586951441
741579,RITE AID 6234,20330 Ballinger Way NE,,Shoreline,WA,98155,1146,KING,Other,47.777248,-122.31231,,,-13615744.066949023,6069876.520988878
1010385,Fisherman's Terminal Food Mart,2120 W Emerson Pl,Ste 1S,Seattle,WA,98199,1256,KING,Convenience Store,47.656322,-122.38433,,,-13623761.296675956,6049868.326612138
741091,RITE AID 5178,3905 Factoria Square Mall SE,,Bellevue,WA,98006,1264,KING,Other,47.57457,-122.17181,,,-13600103.678492567,6036368.031029006
741096,RITE AID 5180,19107 Bothell Way NE,,Bothell,WA,98011,2938,KING,Other,47.76643,-122.21145,,,-13604516.383107612,6068084.70158069
741125,RITE AID 5187,1065 NW Gilman Blvd,,Issaquah,WA,98027,5304,KING,Other,47.544044,-122.05594,,,-13587205.089094354,6031332.458234775
741127,RITE AID 5188,3066 Issaquah Pine Lake Rd SE,,Sammamish,WA,98075,7253,KING,Other,47.58239,-122.03267,,,-13584614.684543591,6037658.4914745875
741128,RITE AID 5192,12421 Totem Lake Blvd NE,,Kirkland,WA,98034,7504,KING,Other,47.709366,-122.17703,,,-13600684.766234508,6058639.173341374
741131,RITE AID 5197,3023 78th Ave SE,,Mercer Island,WA,98040,2822,KING,Other,47.582069,-122.23369,,,-13606992.128582854,6037605.516094816
741133,RITE AID 5199,17220 Redmond Way,,Redmond,WA,98052,4403,KING,Other,47.670738,-122.11066,,,-13593296.49163056,6052251.13566998
741137,RITE AID 5203,3116 NE Sunset Blvd,,Renton,WA,98056,3337,KING,Other,47.50325,-122.17735,,,-13600720.388471564,6024607.650439006
741142,RITE AID 5205,14035 NE Woodinville Duvall Rd,,Woodinville,WA,98072,8504,KING,Other,47.75322,-122.15047,,,-13597728.12055904,6065897.19298599
741146,RITE AID 5225,17171 Bothell Way NE,Ste 150,Lake Forest Park,WA,98155,4204,KING,Other,47.753979,-122.28002,,,-13612149.560591308,6066022.864474863
741150,RITE AID 6325,18022 68th Ave NE,,Kenmore,WA,98028,2400,KING,Other,47.759182,-122.24899,,,-13608695.316791993,6066884.400993757
741156,RITE AID 5228,655 NW Richmond Beach Rd,,Shoreline,WA,98177,3121,KING,Other,47.764668,-122.36576,,,-13621694.093731923,6067792.89126659
831838,Target Store T-2290,1215 N Landing Way,,Renton,WA,98057,5521,KING,Super Store,47.496258,-122.19984,,,-13603223.963819502,6023455.558200934
819203,QFC 881,500 Mercer St,Ste C101,Seattle,WA,98109,4616,KING,Super Store,47.624577,-122.34715,,,-13619622.43800826,6044623.539387346
795265,Walgreens 09373,17524 Aurora Ave N,,Shoreline,WA,98133,4813,KING,Other,47.756798,-122.34531,,,-13619417.6101452,6066489.636684735
916744,Whole Foods Market 10275,2001 15th Ave W,,Seattle,WA,98119,2768,KING,Super Store,47.637039,-122.37625,,,-13622861.835190345,6046682.083316736
1012298,TA Seattle East 176,46630 SE North Bend Way,,North Bend,WA,98045,9730,KING,Convenience Store,47.467056,-121.71751,,,-13549531.233825184,6018645.517032339
850718,Dollar Tree 3197,1241 Auburn Way N,,Auburn,WA,98002,4148,KING,Other,47.31905,-122.22316,,,-13605819.934344804,5994307.533928451
850770,Dollar Tree 3655,16933 SE 272nd St,,Covington,WA,98042,7346,KING,Other,47.356586,-122.11455,,,-13593729.524449743,6000473.457258461
1012707,Safeway 2932,2622 California Ave SW,,Seattle,WA,98116,2459,KING,Supermarket,47.580658,-122.38654,,Washington State Department of Health ,-13624007.312750608,6037372.659321014
750626,Yesler Market,1902 E Yesler Way,Apt 7,Seattle,WA,98122,5868,KING,Convenience Store,47.601879,-122.3074,,,-13615197.488249227,6040875.415422239
823484,Walgreens 06590,1531 Broadway,,Seattle,WA,98122,3810,KING,Other,47.614891,-122.32085,,,-13616694.735400397,6043023.8898342345
822500,Target Store T-0627,301 Strander Blvd,,Tukwila,WA,98188,2971,KING,Super Store,47.455181,-122.25893,,,-13609801.832530478,6016690.277010873
748910,SUNSET CHEVRON,4044 NE Sunset Blvd,,Renton,WA,98056,3320,KING,Convenience Store,47.504436,-122.16584,,,-13599439.10113253,6024803.086340056
749553,Papa Murphy's WA-172,26304 NE Big Rock Rd,Ste 103,Duvall,WA,98019,9011,KING,Specialty Store,47.727875,-121.98627,,,-13579449.460170785,6061701.744555921
673282,PCC Community Market Fremont 11,600 N 34th St,,Seattle,WA,98103,8604,KING,Supermarket,47.649979,-122.35074,,,-13620022.074980209,6048820.10565056
856055,Safeway 1600,300 Bellevue Way NE,,Bellevue,WA,98004,5718,KING,Supermarket,47.613049,-122.20097,,Washington State Department of Health ,-13603349.7548441,6042719.715803275
920442,Interstate 576,20619 Military Rd S,,Seatac,WA,98198,4817,KING,Convenience Store,47.417217,-122.28813,,,-13613052.361661639,6010442.396923778
1575919,Global Groceries Halal,25018 104th Ave SE,Ste D,Kent,WA,98030,2820,KING,Grocery Store,47.377586,-122.2011,,,-13603364.226377903,6003924.976212
746365,QUICK N EASY FOOD STORE,800 NW 85th St,,Seattle,WA,98117,3237,KING,Convenience Store,47.690941,-122.36668,,,-13621796.507663453,6055591.581140952
922403,Walgreens 11856,566 Denny Way,,Seattle,WA,98109,5012,KING,Other,47.618576,-122.34541,,,-13619428.742094282,6043632.435189314
922472,Saleh's Delicatessen,2401 NW 80th St,,Seattle,WA,98117,4450,KING,Convenience Store,47.686783,-122.38793,,,-13624162.04684281,6054903.974925301
921280,QFC 891,5700 24th Ave NW,,Seattle,WA,98107,3203,KING,Super Store,47.67057,-122.38634,,,-13623985.04885245,6052223.3632948855
922577,Jacksons Food Stores 636,1520 S 348th St,,Federal Way,WA,98003,6844,KING,Convenience Store,47.289707,-122.31402,,,-13615934.423278278,5989490.499496834
922579,Jacksons Food Stores 635,1720 S 272nd St,,Des Moines,WA,98198,9354,KING,Convenience Store,47.358242,-122.311,,,-13615598.238416085,6000745.584281583
922600,Jacksons Food Stores 638,902 Outlet Collection Dr SW,,Auburn,WA,98001,6589,KING,Convenience Store,47.296246,-122.24037,,,-13607735.742781354,5990563.729746381
922605,Jacksons Food Stores 633,22588 84th Ave S,,Kent,WA,98032,2422,KING,Convenience Store,47.39983,-122.22799,,,-13606357.607485333,6007582.456115074
922607,Jacksons Food Stores 632,17941 108th Ave SE,,Renton,WA,98055,6446,KING,Convenience Store,47.441814,-122.19739,,,-13602951.23106706,6014489.904690048
922609,Jacksons Food Stores 630,4102 NE 4th St,,Renton,WA,98059,5011,KING,Convenience Store,47.488605,-122.1637,,,-13599200.877422236,6022194.726901717
922610,Jacksons Food Stores 623,2903 78th Ave SE,,Mercer Island,WA,98040,2820,KING,Convenience Store,47.584057,-122.23368,,,-13606991.015387949,6037933.605602011
922612,Jacksons Food Stores 624,3670 150th Ave SE,,Bellevue,WA,98006,1686,KING,Convenience Store,47.576782,-122.14011,,,-13596574.850634422,6036733.036865142
922615,Jacksons Food Stores 625,1605 NW Gilman Blvd,,Issaquah,WA,98027,5312,KING,Convenience Store,47.545673,-122.06185,,,-13587862.98728494,6031601.104192132
922617,Jacksons Food Stores 627,15 E Sunset Way,,Issaquah,WA,98027,3826,KING,Convenience Store,47.529835,-122.03609,,,-13584995.397202104,6028989.53994027
922621,Jacksons Food Stores 629,4333 Tolt Ave,SR 203,Carnation,WA,98014,    ,KING,Convenience Store,47.646877,-121.91495,,,-13571510.154087408,6048307.526838461
922622,Jacksons Food Stores 620,11520 Avondale Rd NE,,Redmond,WA,98052,2880,KING,Convenience Store,47.702675,-122.0929,,,-13591319.457474072,6057532.322092019
922624,Jacksons Food Stores 617,13106 NE 175th St,,Woodinville,WA,98072,8506,KING,Convenience Store,47.754517,-122.16469,,,-13599311.083718121,6066111.944980283
753352,WHY ONE GROCERY,11449 Rainier Ave S,,Seattle,WA,98178,3954,KING,Convenience Store,47.500023,-122.22108,,,-13605588.389803952,6024075.909169462
753449,7-ELEVEN 22866 C,14207 Tukwila International Blvd,,Tukwila,WA,98168,4124,KING,Convenience Store,47.475773,-122.2842,,,-13612614.876062823,6020081.067854647
882313,Trader Joe's 147,4609 14th Ave NW,,Seattle,WA,98107,4621,KING,Supermarket,47.662422,-122.37374,,,-13622582.423268454,6050876.510402258
881299,El Palacio Latino,2109 Auburn Way N,Ste B,Auburn,WA,98002,2800,KING,Grocery Store,47.325855,-122.22275,,,-13605774.293353578,5995425.045130287
882147,Bao An Herbs & Grocery Company,705 S King St,,Seattle,WA,98104,3017,KING,Other,47.598095,-122.32339,,,-13616977.48690701,6040250.7211359525
947204,K's Deli & Grocery,3950 Leary Way NW,,Seattle,WA,98107,5049,KING,Convenience Store,47.655231,-122.36108,,,-13621173.118515009,6049688.0228790045
1290705,7-eleven 39835a,26220 116th Ave SE,Ste 201,Kent,WA,98030,8663,KING,Convenience Store,47.366035,-122.18668,,,-13601758.999320665,6002026.30638568
1290364,Altha's Louisiana Cajun Seasoning & Spices,201 E Meeker St,,Kent,WA,98032,5946,KING,Other,47.381653,-122.232,,,-13606803.998643415,6004593.579257112
902750,Target Store T-0339,4053 Factoria Square Mall SE,,Bellevue,WA,98006,1286,KING,Super Store,47.573769,-122.17352,,,-13600294.034821825,6036235.86047591
902754,Target Store T-0681,26301 104th Ave SE,,Kent,WA,98030,7649,KING,Super Store,47.36541,-122.20228,,,-13603495.58337704,6001923.585264527
902763,Target Store T-1284,302 NE Northgate Way,,Seattle,WA,98125,6047,KING,Super Store,47.709122,-122.32468,,,-13617121.089050137,6058598.807415838
923570,Costco Wholesale 1029,27520 Covington Way SE,,Covington,WA,98042,9100,KING,Super Store,47.355381,-122.12187,,,-13594544.383122351,6000275.447492047
923366,Jacksons Food Stores 618,15606 NE Woodinville Duvall Pl,,Woodinville,WA,98072,    ,KING,Convenience Store,47.762058,-122.13061,,,-13595517.315471886,6067360.659192923
923397,Jacksons Food Stores 619,12221 NE 124th St,,Kirkland,WA,98034,8214,KING,Convenience Store,47.708851,-122.17758,,,-13600745.991954446,6058553.974990537
923404,Jacksons Food Stores 631,13138 Interurban Ave S,,Tukwila,WA,98168,3324,KING,Convenience Store,47.485119,-122.27154,,,-13611205.571309382,6021620.46950762
923425,Costco Wholesale 001,4401 4th Ave S,,Seattle,WA,98134,2311,KING,Super Store,47.565395,-122.33032,,,-13617748.930978209,6034854.213452336
923426,Costco Wholesale 0006,400 Costco Dr Ste 150,,Tukwila,WA,98188,4808,KING,Super Store,47.445415,-122.2487,,,-13608663.034139663,6015082.618474649
923427,008 0008,8629 120th Ave NE,,Kirkland,WA,98033,5822,KING,Super Store,47.682327,-122.18068,,,-13601091.082375905,6054167.149455355
923439,Costco Wholesale 0061,35100 Enchanted Pkwy S,,Federal Way,WA,98003,8314,KING,Super Store,47.286968,-122.30989,,,-13615474.673781302,5989040.993483547
923444,Costco Wholesale 0106,1175 N 205th St,,Shoreline,WA,98133,3206,KING,Super Store,47.775024,-122.3449,,,-13619371.969153976,6069508.122425646
923445,Costco Wholesale 0110,1801 10th Ave NW,,Issaquah,WA,98027,5384,KING,Super Store,47.551308,-122.0528,,,-13586855.545893263,6032530.462614691
887042,SHARIF GROCERY & HALAL INC,8334 Rainier Ave S,Ste 101,Seattle,WA,98118,4680,KING,Other,47.528519,-122.26995,,,-13611028.57331902,6028772.577164146
934658,Zip Mart,10645 16th Ave SW,,Seattle,WA,98146,2077,KING,Convenience Store,47.507462,-122.35517,,,-13620515.220324423,6025301.748029436
1590370,Maple Valley Shell,21641 Renton Maple Valley Rd SE,,Maple Valley,WA,98038,8009,KING,Convenience Store,47.40728,-122.03873,,,-13585289.2806578,6008807.770958507
933996,Renton-Issaquah Shell,16300 SE Renton Issaquah Rd,,Renton,WA,98059,6224,KING,Convenience Store,47.500557,-122.12256,,,-13594621.193571,6024163.898805436
755937,MADRONA GROCERY OUTLET,1126 Martin Luther King Jr Way,,Seattle,WA,98122,5052,KING,Super Store,47.612347,-122.29552,,,-13613875.012698604,6042603.795620953
759310,Sam's Market,803 SW 312th St,,Federal Way,WA,98023,4526,KING,Convenience Store,47.322136,-122.34552,,,-13619440.987238266,5994814.296336062
1643523,Ashanti African Market And Hair Braiding,32700 Pacific Hwy S,Ste 11,Federal Way,WA,98003,6446,KING,Other,47.30851,-122.31284,,,-13615803.066279143,5992576.948332702
935341,Boeing Field Chevron,10805 E Marginal Way S,,Tukwila,WA,98168,1931,KING,Convenience Store,47.505981,-122.29089,,,-13613359.60345623,6025057.686948598
936877,Renton USA 111,765 Rainier Ave S,,Renton,WA,98057,3204,KING,Convenience Store,47.471687,-122.21835,,,-13605284.487594087,6019408.139198413
949743,Town Center Mini Mart,15410 Main St NE,,Duvall,WA,98019,8577,KING,Convenience Store,47.739521,-121.98572,,,-13579388.234450847,6063629.294927406
939995,Queen Anne Farmers Market,1 W Crockett St,,Seattle,WA,98119,2642,KING,Farmers and Markets,47.637089,-122.35702,,Washington State Department of Health ,-13620721.161382392,6046690.343589468
952271,AUBURN VALLEY CHEVRON,1156 Auburn Way S,,Auburn,WA,98002,6227,KING,Convenience Store,47.297413,-122.21783,,,-13605226.601458874,5990755.280588961
1625153,Lake City Shell,8721 Lake City Way NE,,Seattle,WA,98115,3287,KING,Convenience Store,47.691788,-122.3066,,,-13615108.432656595,6055731.6557947965
906519,Walgreens 12497,4105 NE 4th St,,Renton,WA,98059,5012,KING,Other,47.488552,-122.1637,,,-13599200.877422236,6022185.995795428
762367,QFC 878,23475 NE Novelty Hill Rd,,Redmond,WA,98053,5501,KING,Super Store,47.700001,-122.02596,,,-13583867.730760368,6057090.018342602
951984,Emanuel Shell In Lake Hills,1608 145th Pl SE,,Bellevue,WA,98007,6017,KING,Convenience Store,47.595978,-122.14934,,,-13597602.329534443,6039901.248824104
762889,EZ MART,21620 Marine View Dr S,,Des Moines,WA,98198,6154,KING,Convenience Store,47.408028,-122.32539,,,-13617200.125888597,6008930.805431562
1627334,Vashon Garlic,9603 SW 264th St,,Vashon,WA,98070,8460,KING,Farmers and Markets,47.366253,-122.45777,,,-13631936.600079812,6002062.13579904
760049,BARTELL DRUGS 56,2345 42nd Ave SW,,Seattle,WA,98116,2513,KING,Other,47.582191,-122.38565,,,-13623908.2384038,6037625.65000151
1589770,Ar Mercer Mini Mart,405 W Mercer St,,Seattle,WA,98119,3918,KING,Convenience Store,47.624359,-122.36226,,,-13621304.475514147,6044587.533277372
759968,BARTELL DRUGS 16,4706 42nd Ave SW,,Seattle,WA,98116,4500,KING,Other,47.560291,-122.38449,,,-13623779.107794482,6034012.200174954
1260061,Bartell Drugs 71,5625 22nd Ave NW,,Seattle,WA,98107,3119,KING,Other,47.670086,-122.3848,,,-13623813.616836626,6052143.352904523
843250,Bartell Drugs 67,1929 Queen Anne Ave N,,Seattle,WA,98109,2549,KING,Other,47.636894,-122.35731,,,-13620753.44403472,6046658.128570514
734054,Duanes Garden Patch,11215 8th Ave S,,Seattle,WA,98168,2101,KING,Other,47.502598,-122.32363,,,-13617004.203584803,6024500.212010013
1294176,Safeway 3613,34828 SE Douglas St,,Snoqualmie,WA,98065,9220,KING,Supermarket,47.527565,-121.87568,,Washington State Department of Health ,-13567138.637683954,6028615.299041521
954942,Seafood City Supermarket,1368 Southcenter Blvd,Ste 100,Tukwila,WA,98188,    ,KING,Supermarket,47.45977,-122.25636,,,-13609515.74143914,6017445.81172507
1040458,Walgreens 13770,17520 Avondale Rd NE,,Woodinville,WA,98077,    ,KING,Other,47.755489,-122.07966,,,-13589845.587415969,6066272.888302945
763453,Target Store T-0996,755 NW Gilman Blvd,,Issaquah,WA,98027,5357,KING,Super Store,47.543652,-122.04841,,,-13586366.853328679,6031267.812939957
763454,Target Store T-1118,13950 NE 178th Pl,,Woodinville,WA,98072,3523,KING,Super Store,47.758324,-122.15586,,,-13598328.132614415,6066742.323500358
1591356,Ballard Snack Shack,6759 15th Ave NW,,Seattle,WA,98117,5508,KING,Convenience Store,47.679356,-122.37708,,,-13622954.230367703,6053675.912327052
864009,Papa Murphy's WA-110,15858 1st Ave S,,Burien,WA,98148,1213,KING,Specialty Store,47.460484,-122.3315,,,-13617880.287977345,6017563.370886272
864010,Papa Murphy's WA-145,11202 16th Ave SW,,Seattle,WA,98146,3579,KING,Specialty Store,47.502529,-122.35514,,,-13620511.8807397,6024488.842070301
1297001,Arco Ampm 7044,13948 Ne 20th St,,Bellevue,WA,98005,2015,KING,Convenience Store,47.627941,-122.15427,,,-13598151.134624053,6045179.175645151
1297006,Arco Ampm 7059,13023 Ne 175th St,,Woodinville,WA,98072,8720,KING,Convenience Store,47.754494,-122.16603,,,-13599460.251835784,6066108.136687043
911184,QFC 883,4550 42nd Ave SW,,Seattle,WA,98116,4225,KING,Super Store,47.561432,-122.38479,,,-13623812.503641719,6034200.425255449
891962,Dollar Tree 3894,250 SW 152nd St,,Burien,WA,98166,2308,KING,Other,47.467777,-122.33887,,,-13618700.712624492,6018764.245196806
912947,Kennydale Shell Food Mart,1410 N 30th St,,Renton,WA,98056,2141,KING,Convenience Store,47.518478,-122.19951,,,-13603187.228387542,6027117.343566205
1638236,Fresh Del & Mart,209 Yale Ave N,,Seattle,WA,98109,5430,KING,Convenience Store,47.619888,-122.33067,,,-13617787.892799987,6043849.110809178
735306,Lucky One Food Store,6815 Rainier Ave S,,Seattle,WA,98118,3632,KING,Convenience Store,47.54105,-122.27186,,,-13611241.193546435,6030838.725557665
1382345,7-Eleven 27219C,2202 Auburn Way N,,Auburn,WA,98002,2820,KING,Convenience Store,47.326725,-122.22092,,,-13605570.578685425,5995567.926155058
1046412,Saar's Super Saver Foods 530,10616 16th Ave SW,,Seattle,WA,98146,2076,KING,Super Store,47.508488,-122.35506,,Washington State Department of Health ,-13620502.975180436,6025470.831519699
1648186,Wedgewood Chevron,7300 35th Ave NE,,Seattle,WA,98115,5919,KING,Convenience Store,47.681519,-122.2902,,,-13613282.793007584,6054033.548705436
1299003,Skyway Gasoline,11655 Renton Ave S,,Seattle,WA,98178,3045,KING,Convenience Store,47.497498,-122.2484,,,-13608629.638292426,6023659.865426643
1594080,Leschi Food Mart Inc,103 Lakeside Ave,,Seattle,WA,98122,6541,KING,Other,47.601875,-122.28569,,,-13612780.742104106,6040874.755045016
1590136,Kitchen & Market,2811 E Madison St,Ste B,Seattle,WA,98112,4868,KING,Grocery Store,47.623589,-122.29558,,,-13613881.691868052,6044460.356934821
1102231,Dollar Tree 5276,14158 NE Woodinville Duvall Rd,,Woodinville,WA,98072,    ,KING,Other,47.755863,-122.15075,,,-13597759.290016461,6066334.81585562
1441213,Twin Peaks Food And Gas,14500 468th Ave SE,,North Bend,WA,98045,8692,KING,Convenience Store,47.468243,-121.71539,,,-13549295.236504702,6018840.982990671
1575058,Abarrotes Pablo,3218 Rainier Ave S,,Seattle,WA,98144,6032,KING,Grocery Store,47.574436,-122.29466,,,-13613779.277936522,6036345.919959204
817337,Bartell Drugs 63,2345 Rainier Ave S,,Seattle,WA,98144,5348,KING,Other,47.581459,-122.3006,,,-13614440.515711835,6037504.847265151
892065,Goodies Mediterranean Market,13721 Lake City Way NE,,Seattle,WA,98125,3615,KING,Grocery Store,47.729126,-122.29234,,,-13613521.016717881,6061908.779147592
913923,Trader Joe's 140,15932 Redmond Way,,Redmond,WA,98052,3828,KING,Supermarket,47.675842,-122.12891,,,-13595328.072337536,6053094.929496123
1078356,Walgreens 10553,15585 NE 24th St,,Bellevue,WA,98007,3836,KING,Other,47.630722,-122.13341,,,-13595829.010046108,6045638.544037078
1062883,Pike Place Market PDA,85 Pike St,Ste 500,Seattle,WA,98101,2096,KING,Farmers and Markets,47.60865,-122.34115,,,-13618954.5210635,6041993.341361018
914840,Dollar Tree 4208,7808 NE Bothell Way,,Kenmore,WA,98028,3553,KING,Other,47.756329,-122.23653,,,-13607308.275936708,6066411.97754676
1062888,Pike Place Express at South Lake Union,410 Terry Ave N,,Seattle,WA,98109,5210,KING,Farmers and Markets,47.622299,-122.33675,,,-13618464.71530401,6044247.299468014
1050012,Walgreens 13087,4468 Stone Way N,,Seattle,WA,98103,7439,KING,Other,47.660889,-122.34216,,,-13619066.953749204,6050623.13116454
1638241,Sap Sap Deli & Mart,19246 15th Ave NE,,Shoreline,WA,98155,2300,KING,Convenience Store,47.769638,-122.31355,,,-13615882.103117608,6068616.0138472915
1596639,7-Eleven #16365F,6111 24th Ave NW,,Seattle,WA,98107,3211,KING,Convenience Store,47.673553,-122.3881,,,-13624180.971156243,6052716.50156451
1058308,Walmart 3098,15063 Main St,,Bellevue,WA,98007,    ,KING,Super Store,47.608986,-122.1395,,,-13596506.945745036,6042048.820409091
897525,East Hill AM/PM 82542,10402 SE 256th St,,Kent,WA,98030,7688,KING,Convenience Store,47.373047,-122.20174,,,-13603435.47085201,6003178.838624157
1602281,Walgreens 21452,951 Mercer St,,Seattle,WA,98109,4351,KING,Other,47.624348,-122.33804,,,-13618608.317447135,6044585.716459289
1056388,Fred Meyer 682,26520 Maple Valley-Black Diamond Rd SE,,Maple Valley,WA,98038,    ,KING,Super Store,47.363651,-122.02133,,,-13583352.321517996,6001634.493473775
1053722,Dollar Tree 4876,7816 Aurora Ave N,,Seattle,WA,98103,4754,KING,Other,47.685921,-122.34411,,,-13619284.026756248,6054761.433310404
1060294,Pike Place Market Express at City Hall,4TH Ave between James & Cherry St,City Hall Plaza,Seattle,WA,98101,    ,KING,Farmers and Markets,47.603592,-122.33062,,,-13617782.32682545,6041158.2266096175
1053853,Trader Joe's 157,4545 Fauntleroy Way SW,,Seattle,WA,98126,2739,KING,Supermarket,47.561703,-122.38088,,,-13623377.24443272,6034245.131376581
1133808,West Seattle Halal Market,9405 16th Ave SW,,Seattle,WA,98106,2825,KING,Grocery Store,47.518879,-122.35517,,,-13620515.220324423,6027183.441334499
1135436,Choices Produce,1514 Pike Pl,Ste 4,Seattle,WA,98101,1574,KING,Specialty Store,47.608955,-122.34093,,,-13618930.030775527,6042043.70179152
1134956,Saars Super Saver Foods Auburn 622,1702 Auburn Way N,,Auburn,WA,98002,    ,KING,Super Store,47.323792,-122.22146,,Washington State Department of Health ,-13605630.691210454,5995086.245853288
898532,Rocket #1525 1525,17624 272nd St SE,,Kent,WA,98031,    ,KING,Convenience Store,47.358158,-122.10584,,,-13592759.931684935,6000731.78053131
898536,Rocket #5477 5477,15615 NE 8th St,,Bellevue,WA,98008,3901,KING,Convenience Store,47.616951,-122.13192,,,-13595663.144004824,6043364.075438457
897587,Y and F Corporation,9118 35th Ave NE,,Seattle,WA,98115,3617,KING,Convenience Store,47.695049,-122.29054,,,-13613320.641634453,6056270.972722907
1443991,Des Moines Farmers Market,22307 Dock Street,,Des Moines,WA,98198,    ,KING,Farmers and Markets,47.401398,-122.3292,,,-13617624.25314852,6007840.3334864285
1140009,Jacksons Food Stores 626,825 Front St N,,Issaquah,WA,98027,2508,KING,Convenience Store,47.539051,-122.03637,,,-13585026.566659529,6030509.091414934
1065719,Target Store T-2786,1401 2nd Ave,,Seattle,WA,98101,2007,KING,Super Store,47.60862,-122.33839,,,-13618647.279268913,6041988.387891917
1067788,Duvall Farmers Market,16201 Main St NE,,Duvall,WA,98019,8109,KING,Farmers and Markets,47.74477,-121.98573,,Washington State Department of Health ,-13579389.347645756,6064498.207304869
1235137,SHORELINE 270,2101 N 175th St,,Shoreline,WA,98133,3262,KING,Supermarket,47.755959,-122.33475,,,-13618242.076322423,6066350.711769811
1447367,Amazon Fresh - Bellevue,3901 Factoria Square Mall SE,,Bellevue,WA,98006,6148,KING,Super Store,47.575958,-122.17098,,,-13600011.283315208,6036597.065438726
1142760,Jacksons Food Stores 628,2936 228th Ave SE,,Sammamish,WA,98075,9516,KING,Convenience Store,47.583317,-122.0355,,,-13584929.718702538,6037811.478273373
1446429,Delridge Farmers Market,9421 18th Ave SW,,Seattle,WA,98106,2717,KING,Farmers and Markets,47.519005,-122.35815,,,-13620846.952406984,6027204.210313628
1080309,Ayyan Inc,710 S Grady Way,,Renton,WA,98055,3233,KING,Convenience Store,47.472687,-122.20942,,,-13604290.404541302,6019572.825663863
1578480,River Edge Market,4211 Preston Fall City Rd SE,,Fall City,WA,98024,5024,KING,Convenience Store,47.567165,-121.88821,,,-13568533.470903594,6035146.231730015
1148333,Pike Place Express At Denny Regrade,2250 7th Ave,,Seattle,WA,98121,1902,KING,Farmers and Markets,47.617237,-122.34053,,,-13618885.50297921,6043411.306149834
1068708,Micronesian Market,228 SW 153rd St,,Burien,WA,98166,2314,KING,Other,47.466248,-122.33807,,,-13618611.657031858,6018512.464381017
1235942,Safeway 3319,4300 NE 4th St,,Renton,WA,98059,5008,KING,Supermarket,47.488586,-122.16125,,Washington State Department of Health ,-13598928.14466979,6022191.596881468
872356,Walgreens 10995,3716 S 144th St,,Tukwila,WA,98168,4045,KING,Other,47.474483,-122.28609,,,-13612825.269900424,6019868.610424293
1019850,Cenex Convenience Store,32632 3rd Ave,,Black Diamond,WA,98010,9606,KING,Convenience Store,47.308487,-122.0033,,,-13581345.231098993,5992573.172289909
1116872,Tukwila Super Saver Foods,3725 S 144th St,,Tukwila,WA,98168,4044,KING,Super Store,47.47287,-122.28586,,Washington State Department of Health ,-13612799.66641754,6019602.96362625
1596429,Farestart's Mobile Community Market,700 Virginia St,,Seattle,WA,98101,1216,KING,Other,47.615364,-122.33741,,,-13618538.186167935,6043101.999226955
1116288,Seatac Chevron 94411,19923 International Blvd,,Seatac,WA,98188,5417,KING,Convenience Store,47.423157,-122.2971,,,-13614050.897494057,6011419.667946922
1665916,CVS Pharmacy 11648,2345 Rainier Ave S,,Seattle,WA,98144,5348,KING,Other,47.581688,-122.30122,,,-13614509.533796128,6037542.639196471
1084246,The Live Butcher,9432 16th Ave Sw,,Seattle,WA,98106,2824,KING,Specialty Store,47.51823,-122.35488,,,-13620482.937672094,6027076.465398737
1118134,Safeway 3006,1451 Highlands Dr NE,,Issaquah,WA,98029,    ,KING,Supermarket,47.541367,-122.01904,,Washington State Department of Health ,-13583097.39988408,6030890.999860463
1241674,Safeway 3213,15332 Aurora Ave N,,Shoreline,WA,98133,6125,KING,Supermarket,47.740841,-122.34527,,Washington State Department of Health ,-13619413.157365568,6063847.797700639
1087207,Fred Meyer 122,100 NW 85th St,,Seattle,WA,98117,    ,KING,Super Store,47.691917,-122.35906,,,-13620948.253143609,6055752.989678424
1242126,Dollar Tree 6400,9000 Rainier Ave S,,Seattle,WA,98118,5017,KING,Other,47.522617,-122.26995,,,-13611028.57331902,6027799.608925499
1154284,Walgreens 15203,26705 Maple Valley Black Diamond Rd SE,,Maple Valley,WA,98038,8390,KING,Other,47.362297,-122.02116,,,-13583333.397204561,6001411.970031175
1154795,PCC Community Market Greenlake Village 14,450 NE 71st St,,Seattle,WA,98115,5464,KING,Supermarket,47.679996,-122.32365,,,-13617006.42997462,6053781.730145496
1650077,D'licias Mexican Market Llc,22021 7th Ave S,Ste 3,Des Moines,WA,98198,6218,KING,Grocery Store,47.403801,-122.32654,,,-13617328.143303012,6008235.552031118
966827,Dollar Tree 4423,363 Strander Blvd,,Tukwila,WA,98188,2916,KING,Other,47.454823,-122.25573,,,-13609445.610159941,6016631.33852663
1245125,Safeway 3120,12725 1st Ave S,,Seattle,WA,98168,2683,KING,Supermarket,47.488659,-122.3339,,Washington State Department of Health ,-13618147.45475525,6022203.622754922
1119393,Mendoza's Mexican Mercado,7811 Aurora Ave N,,Seattle,WA,98103,4753,KING,Grocery Store,47.686008,-122.34456,,,-13619334.120527107,6054775.81965422
1300143,TT Mini Mart ,5603 Rainier Ave S,,Seattle,WA,98118,2442,KING,Convenience Store,47.551811,-122.27836,,,-13611964.77023659,6032613.4252873575
1091007,Jacksons Food Stores 616,11700 NE 160th St,,Bothell,WA,98011,4140,KING,Convenience Store,47.743809,-122.18394,,,-13601453.983915891,6064339.118109589
1521479,Papa Murphy's Pizza WA051,2154 SW 336th St,,Federal Way,WA,98023,2883,KING,Specialty Store,47.301441,-122.36286,,,-13621371.267208623,5991416.467134925
1521482,Papa Murphy's Pizza WA085,27031 Pacific Hwy S,,Des Moines,WA,98198,9250,KING,Specialty Store,47.359337,-122.31106,,,-13615604.91758553,6000925.528036691
1521484,Papa Murphy's Pizza WA123,365 Renton Center Way SW,Ste B,Renton,WA,98057,2324,KING,Specialty Store,47.47752,-122.21928,,,-13605388.014720526,6020368.79952674
1521493,7-eleven #16022g,5900 Phinney Ave N,,Seattle,WA,98103,5834,KING,Convenience Store,47.67202,-122.35393,,,-13620377.18415584,6052463.068285989
1576102,DOLLARTREE 9285,3902 A St SE,,Auburn,WA,98002,8610,KING,Other,47.273403,-122.2272,,,-13606269.665087607,5986815.1411482515
1121535,Asian Pacific Market,25644 104th Ave Se,,Kent,WA,98030,7610,KING,Super Store,47.37125,-122.20233,,,-13603501.14935158,6002883.458871225
969025,Jacksons Food Stores 654,10 Denny Way,,Seattle,WA,98109,4907,KING,Convenience Store,47.618626,-122.35638,,,-13620649.916908283,6043640.692544681
1209227,Dollar Tree 6112,21815 Marine View Dr S,,Des Moines,WA,98198,6176,KING,Other,47.406982,-122.32489,,,-13617144.466143202,6008758.75503749
1077203,Trader Joe's 138,975 NW Gilman Blvd,Ste A,Issaquah,WA,98027,5377,KING,Supermarket,47.544029,-122.05219,,,-13586787.641003877,6031329.984553886
1296743,Lucky Grocery And Cafe LLC 30687,29100 Pacific Hwy S,Ste 7,Federal Way,WA,98003,3877,KING,Convenience Store,47.341152,-122.31171,,,-13615677.27525455,5997937.63086754
1213074,S & S Petroleum 62515,12739 1st Ave S,,Burien,WA,98168,2683,KING,Convenience Store,47.488861,-122.33389,,,-13618146.341560343,6022236.899916529
1210966,Chevron 1113,940 E Marginal Way,,Seattle,WA,98134,    ,KING,Convenience Store,47.561455,-122.33939,,,-13618758.598759705,6034204.2194929095
1210970,Chevron 1193,3725 150th Ave SE,,Bellevue,WA,98006,1660,KING,Convenience Store,47.576275,-122.14018,,,-13596582.642998777,6036649.374581321
1210976,Chevron 1121,15510 Aurora Ave N,,Shoreline,WA,98133,5920,KING,Convenience Store,47.741772,-122.34529,,,-13619415.383755384,6064001.911700475
1210980,Chevron 1005,1419 N 30th St,,Renton,WA,98056,2142,KING,Convenience Store,47.518421,-122.19971,,,-13603209.4922857,6027107.94816384
1191749,Sheger Arada,14645 Tukwila International Blvd,,Tukwila,WA,98168,4326,KING,Other,47.470886,-122.28606,,,-13612821.930315701,6019276.227599884
1218372,Site 17 Grocery,2500 Western Ave,Site 17,Seattle,WA,98121,1308,KING,Convenience Store,47.614235,-122.34961,,,-13619896.283955613,6042915.561697923
1522328,Gull Gas Station,14420 468th Ave SE,,North Bend,WA,98045,8659,KING,Convenience Store,47.468884,-121.71573,,,-13549333.08513157,6018946.539737167
1522373,Gray African Varieties Market Plus,214 W Meeker St,,Kent,WA,98032,5821,KING,Other,47.381397,-122.23443,,,-13607074.505006045,6004551.4920759555
1221720,CVS 10387,2104 N 45th St,,Seattle,WA,98103,6902,KING,Other,47.661407,-122.33343,,,-13618095.134594576,6050708.7470609695
1221730,CVS 10619,107 Bellevue Way SE,,Bellevue,WA,98004,5021,KING,Other,47.609077,-122.20152,,,-13603410.980564037,6042063.846045948
1126057,Eastlake Market,2244 Eastlake Ave E,,Seattle,WA,98102,3419,KING,Convenience Store,47.639587,-122.32585,,,-13617251.332854364,6047103.036877885
1247208,Lake City Way Shell,13001 Lake City Way NE,,Seattle,WA,98125,4428,KING,Convenience Store,47.723473,-122.293,,,-13613594.487581804,6060973.273878044
1159521,Los Vecinos,15423 Se 272nd St,Ste 104,Kent,WA,98042,4212,KING,Grocery Store,47.357952,-122.13554,,,-13596066.120561497,6000697.928570089
1247265,Safeway Inc Haggen 3438,1406 Lake Tapps Pkwy E,,Auburn,WA,98092,    ,KING,Supermarket,47.244678,-122.21059,,,-13604420.64834553,5982103.598837513
1247277,Safeway Inc DBA Haggen 3498,17641 Garden Way NE,,Woodinville,WA,98072,3535,KING,Supermarket,47.755882,-122.1555,,,-13598288.05759773,6066337.961919645
973559,Renton Grocery Outlet 101,2809 NE Sunset Blvd,,Renton,WA,98056,3105,KING,Super Store,47.500439,-122.1793,,,-13600937.461478608,6024144.455325699
1328875,Mana Grocery,15205 Military Rd S,,Seatac,WA,98188,2141,KING,Other,47.466743,-122.28905,,,-13613154.775593173,6018593.975354175
1492332,Local Roots Farm Store,26331 NE Valley St,Ste 6,Duvall,WA,98019,5022,KING,Grocery Store,47.737549,-121.98621,,,-13579442.781001335,6063302.875346806
1388151,La Malinche,26028 Pacific Hwy S,,Kent,WA,98032,6936,KING,Convenience Store,47.367989,-122.30238,,,-13614638.664405445,6002347.461549862
1633362,Ecolibrium Farms,13607 Redmond Woodville Rd NE,,Redmond,WA,98052,2017,KING,Farmers and Markets,47.72237,-122.13609,,,-13596127.346281432,6060790.752137768
1230017,Harameyn Grocery,5811 Rainier Ave S,,Seattle,WA,98118,2705,KING,Grocery Store,47.55014,-122.27727,,,-13611843.431991626,6032337.82075211
1228336,Stop By Corner Grocery ,14857 Tukwila International Blvd,,Tukwila,WA,98168,4328,KING,Convenience Store,47.469021,-122.28736,,,-13612966.645653732,6018969.100394424
1598939,Super 24 Convenient Store & Deli,6402 Lake Washington Blvd NE,,Kirkland,WA,98033,6818,KING,Convenience Store,47.663967,-122.20673,,,-13603990.95511107,6051131.880567445
1523807,Krishna Supermarket,660 Nw Gilman Blvd,Ste C6,Issaquah,WA,98027,2421,KING,Other,47.544163,-122.04621,,,-13586121.950448932,6031352.082794924
1131372,1st Hill Farmers Market,900 E Seneca St,,Seattle,WA,98122,4212,KING,Farmers and Markets,47.612206,-122.31972,,,-13616568.944375802,6042580.512695071
1132314,Trader Joe's 0160,490 228th Ave NE,,Sammamish,WA,98074,7209,KING,Supermarket,47.61356,-122.03545,,,-13584924.152727995,6042804.097427447
1270995,7-eleven 37755A,1105 NE 47th St,,Seattle,WA,98105,4616,KING,Convenience Store,47.663082,-122.31621,,,-13616178.212963117,6050985.599645198
1131250,B & E Meats and Seafood,13024 Newcastle Way,Ste 3,Newcastle,WA,98059,3087,KING,Specialty Store,47.537628,-122.16493,,,-13599337.800395912,6030274.447053919
1274547,CVS Pharmacy 10659,33520 21st Ave SW,,Federal Way,WA,98023,2874,KING,Other,47.301319,-122.36088,,,-13621150.85461685,5991396.440387576
1165035,CVS Pharmacy 10285,10712 SE Carr Rd,,Renton,WA,98055,5826,KING,Other,47.445297,-122.19782,,,-13602999.0984481,6015063.19538606
1164616,Jacksons Food Stores 622,12001 NE 8th St,,Bellevue,WA,98005,3110,KING,Convenience Store,47.617302,-122.17986,,,-13600999.800393455,6043422.040438448
1167249,Uplake Grocery & Deli,6016 Ne Bothell Way,Ste L,Kenmore,WA,98028,9403,KING,Convenience Store,47.758358,-122.26343,,,-13610302.770239048,6066747.9535662355
1168189,Trader Joe's 163,12966 Kent Kangley Rd,Ste D,Kent,WA,98030,7940,KING,Supermarket,47.358643,-122.16827,,,-13599709.60749516,6000811.481058976
1312140,Idil Iinternational Market Llc,4433 S Graham St,Ste 3,Seattle,WA,98118,2777,KING,Grocery Store,47.54599,-122.27669,,,-13611778.866686966,6031653.383105116
1173442,CVS 10373,117 SW 160th St,,Burien,WA,98166,3024,KING,Other,47.459652,-122.33522,,,-13618294.396483097,6017426.383333948
1343476,Haller Lake Market,13401 Roosevelt Way N,,Seattle,WA,98133,7842,KING,Convenience Store,47.726223,-122.32922,,,-13617626.479538338,6061428.353977134
1342823,Whole Foods Market 10630,1001 Broadway,,Seattle,WA,98122,4397,KING,Super Store,47.611141,-122.32084,,,-13616693.62220549,6042404.654325182
1170991,Highline Chevron,23845 Pacific Hwy S,,Des Moines,WA,98198,8740,KING,Convenience Store,47.386688,-122.29647,,,-13613980.766214859,6005421.390162108
976052,Burien USA,303 SW 148th St,,Burien,WA,98166,1927,KING,Convenience Store,47.470177,-122.33828,,,-13618635.034124924,6019159.468573917
978513,Dollar Tree 4494,10014 15th Ave SW,,Seattle,WA,98146,3728,KING,Other,47.513149,-122.35352,,,-13620331.543164613,6026238.999986918
1196445,South Center 76 Union,16200 W Valley Hwy,,Tukwila,WA,98188,5528,KING,Convenience Store,47.457909,-122.24409,,,-13608149.851287104,6017139.408025308
1313935,Pacific Hwy Shell Gas,26010 Pacific Hwy S,Ste 101,Kent,WA,98032,6902,KING,Convenience Store,47.368378,-122.30392,,,-13614810.096421268,6002411.398158659
1197231,Noah's Grocery,4700 50th Ave S,,Seattle,WA,98118,1838,KING,Convenience Store,47.560429,-122.27069,,,-13611110.949742207,6034034.965128912
1318611,Elliott Shell Food Mart,630 Elliott Ave W,,Seattle,WA,98119,5915,KING,Convenience Store,47.625465,-122.36669,,,-13621797.620858362,6044770.2080291305
1212098,7-Eleven 37134A,5700 Martin Luther King Jr Way S,,Seattle,WA,98118,2622,KING,Convenience Store,47.550945,-122.28777,,,-13613012.286644954,6032470.591439027
1578254,Papa Murphy's Pizza WA170,348 Roosevelt Ave E,,Enumclaw,WA,98022,8216,KING,Specialty Store,47.199272,-121.97559,,,-13578260.56800911,5974661.207629105
1525165,Naanwa Bakery,12005 NE 12th St,Ste 18,Bellevue,WA,98005,2420,KING,Specialty Store,47.619984,-122.17879,,,-13600880.688538305,6043864.965336311
1650298,Chandler's Bay Korean Chicken And Mart 1,1018 Central Ave N,,Kent,WA,98032,3046,KING,Convenience Store,47.3923,-122.22932,,,-13606505.662408091,6006344.159579023
1204383,Chevron 1153,18015 E Valley Hwy,,Kent,WA,98032,2503,KING,Convenience Store,47.440243,-122.22087,,,-13605565.012710886,6014231.3355190875
1315823,Sa Marok Llc,11750 Lake City Way NE,,Seattle,WA,98125,5330,KING,Convenience Store,47.715435,-122.29748,,,-13614093.198900556,6059643.253836446
1204501,Chevron 1007,524 A St SE,,Auburn,WA,98002,6040,KING,Convenience Store,47.303108,-122.22864,,,-13606429.96515435,5991690.115927494
1320983,East African Grocery Llc 1,7135 Martin Luther King Jr Way S,,Seattle,WA,98118,3521,KING,Grocery Store,47.538006,-122.28183,,,-13612351.048869645,6030336.776417647
1319537,Tienda Mexicana La Bonita,4111 A St SE,Ste 101,Auburn,WA,98002,8651,KING,Grocery Store,47.271385,-122.22894,,,-13606463.361001587,5986484.060526581
1316767,City Grocery Wholesale And Retail Inc.,14818 Tukwila International Blvd,Ste 100,Tukwila,WA,98168,4384,KING,Grocery Store,47.469967,-122.28644,,,-13612864.2317222,6019124.885807931
1319975,Aurora Village Mart,20003 Aurora Ave N,,Shoreline,WA,98133,3120,KING,Convenience Store,47.774323,-122.34609,,,-13619504.43934802,6069392.007259584
760034,BARTELL DRUGS 45,4700 NE 4th St,,Renton,WA,98059,4800,KING,Other,47.489895,-122.15568,,,-13598308.095106073,6022407.241451042
1585134,Gracie's Greens,11132 SW 204th St,,Vashon,WA,98070,6011,KING,Farmers and Markets,47.422234,-122.47724,,,-13634103.990565557,6011267.8052981915
1290701,Bartell Drugs 75,35013 SE Snoqualmie Pkwy,,Snoqualmie,WA,98065,9709,KING,Other,47.528103,-121.8756,,,-13567129.732124694,6028703.994318686
1290700,Bartell Drugs 73,419 NE 71st St,,Seattle,WA,98115,5430,KING,Other,47.679993,-122.32337,,,-13616975.260517195,6053781.234121446
1283710,Dollar Tree 7194,310 Washington Ave S,,Kent,WA,98032,5713,KING,Other,47.379368,-122.24733,,,-13608510.526437277,6004217.925513284
1347496,7-eleven 38365A,4710 University Way NE,,Seattle,WA,98105,4427,KING,Convenience Store,47.663506,-122.31303,,,-13615824.216982393,6051055.681947081
1571950,La Bonita Market 2,24202 104th Ave SE,,Kent,WA,98030,5381,KING,Grocery Store,47.384876,-122.20116,,,-13603370.905547353,6005123.46777582
1574495,Pacific Islands Groceries And More ,1250 Sw 43rd St,Ste D1,Renton,WA,98057,4833,KING,Grocery Store,47.441692,-122.23418,,,-13607046.675133344,6014469.82456702
1285424,Emm And Ess,20010 Ballinger Way NE,,Shoreline,WA,98155,1225,KING,Convenience Store,47.774796,-122.30968,,,-13615451.296688236,6069470.355837525
1662355,CVS Pharmacy 11686,15100 SE 38th St,,Bellevue,WA,98006,1728,KING,Other,47.576584,-122.1374,,,-13596273.174814371,6036700.363924166
1285173,CVS Pharmacy 10794,2438 32nd Ave W,,Seattle,WA,98199,3202,KING,Other,47.640888,-122.39831,,,-13625317.543157244,6047317.982229723
985673,Burien Farmers Market,400 Sw 152nd Street,,Burien,WA,98166,    ,KING,Farmers and Markets,47.467129,-122.33962,,Washington State Department of Health ,-13618784.202242587,6018657.537979053
985769,Issaquah Arco Am/pm 209,800 Front St N,,Issaquah,WA,98027,2507,KING,Convenience Store,47.53846,-122.0363,,,-13585018.77429517,6030411.638205073
1321186,Tilth Alliance,4649 Sunnyside Ave N,Ste 100,Seattle,WA,98103,6952,KING,Farmers and Markets,47.66346,-122.33018,,Washington State Department of Health ,-13617733.346249498,6051048.078650953
1321118,Jaimaa Llc,5235 Delridge Way SW,,Seattle,WA,98106,1377,KING,Convenience Store,47.553867,-122.36302,,,-13621389.07832715,6032952.541429712
1322458,Manhattan Express Grocery,16928 Juanita Dr NE,,Kenmore,WA,98028,4248,KING,Convenience Store,47.751408,-122.24997,,,-13608804.40989297,6065597.17834479
1348563,Dollar Etc,16256 Military Rd S,Ste 112,Seatac,WA,98188,3049,KING,Convenience Store,47.456959,-122.28223,,,-13612395.57666596,6016982.999785742
1322816,YM Snoqualmie Market LLC,8030 Railroad Ave SE,,Snoqualmie,WA,98065,5160,KING,Convenience Store,47.528397,-121.82504,,,-13561501.418670185,6028752.463869443
1322851,Puget Consumers Co-op Burien 17,15840 1st Ave S,,Burien,WA,98148,1302,KING,Super Store,47.460968,-122.33387,,,-13618144.115170527,6017643.061757822
1348086,Michigan Street Shell,600 S Michigan St,,Seattle,WA,98108,2633,KING,Convenience Store,47.546459,-122.32551,,,-13617213.484227495,6031730.730089409
1322997,Dollar Tree 7562,80 Front St S,,Issaquah,WA,98027,3819,KING,Other,47.529488,-122.03651,,,-13585042.15138824,6028932.3311418
1323018,Dollar Tree 7457,26100 Pacific Hwy S,,Kent,WA,98032,6910,KING,Other,47.367664,-122.30429,,,-13614851.28463286,6002294.044436196
1185736,Renton Farmers Market,233 Burnett Ave S,,Renton,WA,98057,2112,KING,Farmers and Markets,47.480198,-122.20788,,,-13604118.972525481,6020809.88588346
1372305,Ez Mart,9201 Holman Rd NW,,Seattle,WA,98117,2259,KING,Convenience Store,47.696831,-122.37241,,,-13622434.3683457,6056565.701100562
1526875,Mana Grocery Kent Llc 1,10700 SE 208th St,,Kent,WA,98031,5545,KING,Other,47.416267,-122.1982,,,-13603041.399854604,6010286.109595936
1526919,Arco Ampm 7189,15252 Tukwila International Blvd,,Tukwila,WA,98188,2246,KING,Convenience Store,47.465645,-122.28799,,,-13613036.776932929,6018413.170232603
1527737,Arco Ampm 7055,11450 NE 124th St,,Kirkland,WA,98034,4305,KING,Convenience Store,47.711552,-122.18706,,,-13601801.300727166,6059000.820760991
1349452,7-eleven 22671B,711 Washington Ave N,,Kent,WA,98032,2917,KING,Convenience Store,47.387043,-122.24751,,,-13608530.56394562,6005479.759158311
1324402,Papa Murphy's WA-048,755 NW Gilman Blvd,Ste C,Issaquah,WA,98027,5370,KING,Specialty Store,47.544239,-122.05008,,,-13586552.756878303,6031364.616150768
1324416,M & H Grocery,18015 SE Renton Maple Valley Rd,,Renton,WA,98058,8302,KING,Convenience Store,47.462685,-122.10146,,,-13592272.352315262,6017925.77268903
1324069,La Central,25626 Pacific Hwy S,,Kent,WA,98032,5556,KING,Grocery Store,47.371964,-122.30025,,,-13614401.553890055,6003000.820573009
1324154,Seven Star Mini Mart,1917 S Jackson St,,Seattle,WA,98144,2224,KING,Convenience Store,47.599228,-122.30672,,,-13615121.79099549,6040437.761488704
1394527,The Way Market,7630 NE Bothell Way,,Kenmore,WA,98028,3522,KING,Convenience Store,47.756489,-122.23796,,,-13607467.462808544,6066438.470990643
1368243,Reliance Mini Mart,14620 Pacific Hwy S,,Tukwila,WA,98168,4327,KING,Convenience Store,47.471874,-122.28543,,,-13612751.7990365,6019438.935329241
1657368,CVS Pharmacy 11664,6939 Coal Creek Pkwy SE,,Newcastle,WA,98059,3136,KING,Other,47.53875,-122.16759,,,-13599633.91024142,6030459.457747774
1368674,D Unik Oriental Foods 1,18002 15th Ave NE,Ste I,Shoreline,WA,98155,3838,KING,Convenience Store,47.759544,-122.31344,,,-13615869.85797362,6066944.3458138425
1606223,Amazon Go IBF2,10819 NE 4th St,,Bellevue,WA,98004,5531,KING,Other,47.613705,-122.19598,,,-13602794.270585043,6042828.041482728
1647987,Lee Family Farm ,1509 Pike Pl,Ste 2,Seattle,WA,98101,1528,KING,Specialty Store,47.608692,-122.34104,,,-13618942.275919516,6042000.276222537
1650202,Broadway Roy Gas,915 E Roy St,,Seattle,WA,98102,4612,KING,Convenience Store,47.625107,-122.32024,,,-13616626.830511015,6044711.077803961
1528216,Pacific Halal Market,33110 Pacific Hwy S,Ste 1,Federal Way,WA,98003,6444,KING,Grocery Store,47.304951,-122.31258,,,-13615774.123211537,5991992.666298053
1326245,Teresita's Mini Market,1529 W Meeker St,Ste 104,Kent,WA,98032,4636,KING,Grocery Store,47.381241,-122.25491,,,-13609354.32817749,6004525.845300153
1000664,Fil-am Food & Gifts Inc.,15206 Aurora Ave N,,Shoreline,WA,98133,6124,KING,Grocery Store,47.73917,-122.34523,,,-13619408.704585936,6063571.193986032
1205669,Don Chano's Tienda,1610 SW Dash Point Rd,Ste A,Federal Way,WA,98023,4567,KING,Grocery Store,47.323582,-122.35497,,,-13620492.956426265,5995051.75902949
1037068,Speed E Mart,9625 Renton Ave S,,Seattle,WA,98118,5719,KING,Convenience Store,47.516335,-122.26888,,,-13610909.46146387,6026764.116425166
1286436,European Grocery,900 160th Ave NE,Ste 5 & 6,Bellevue,WA,98008,3939,KING,Grocery Store,47.617085,-122.12812,,,-13595240.129939811,6043386.204480852
951978,Bel-Red Arco AM PM Food Mart,14650 Bellevue-Redmond Rd,,Bellevue,WA,98007,    ,KING,Convenience Store,47.62648,-122.14343,,,-13596944.431343853,6044937.855981045
1302269,Sunset Mobile,4715 NE Sunset Blvd,,Renton,WA,98059,4202,KING,Convenience Store,47.505737,-122.15619,,,-13598364.868046377,6025017.477681071
1300660,Dollar Tree 7340,757 Rainier Ave S,,Renton,WA,98057,3200,KING,Other,47.471855,-122.21792,,,-13605236.620213045,6019435.8063056
1396222,Highland Shell 1,21449 International Blvd,,Des Moines,WA,98198,6074,KING,Convenience Store,47.408707,-122.29833,,,-13614187.820467735,6009042.491980852
1396497,Valley Food Mart,22240 SE 272nd St,,Maple Valley,WA,98038,7420,KING,Convenience Store,47.358368,-122.04401,,,-13585877.047569187,6000766.289948203
1397115,North Bend Farmers Market,400 SE Orchard Dr,,North Bend,WA,98045,9470,KING,Farmers and Markets,47.49012,-121.78467,,Washington State Department of Health ,-13557007.45082686,6022444.308476809
1021872,Juneau Street Market,5901 California Ave SW,,Seattle,WA,98136,1611,KING,Convenience Store,47.55014,-122.38716,,,-13624076.330834897,6032337.82075211
1245204,All Star Grocery,2825 S 200th St,,Seatac,WA,98198,5208,KING,Convenience Store,47.422691,-122.2971,,,-13614050.897494057,6011342.995897654
1043556,7-Eleven Store 35334 A,31207 124th Ave SE,,Auburn,WA,98092,3618,KING,Convenience Store,47.322159,-122.17644,,,-13600619.087734941,5994818.073354315
954259,7-Eleven 2360-29078B,101 NE 50th St,,Seattle,WA,98105,4823,KING,Convenience Store,47.664993,-122.32799,,,-13617489.55656466,6051301.470367935
1370394,Auburn's Main Supermarket,1119 E Main St,,Auburn,WA,98002,5777,KING,Grocery Store,47.308537,-122.21411,,,-13604812.492953124,5992581.381080686
988480,Federal Way Farmers Market,1701 S. 320th,,Federal Way,WA,98023,    ,KING,Farmers and Markets,47.315044,-122.31149,,Washington State Department of Health ,-13615652.784966573,5993649.739383929
1664267,CVS Pharmacy 11687,14901 4th Ave SW,,Burien,WA,98166,1906,KING,Other,47.468994,-122.33943,,,-13618763.051539334,6018964.65412885
1646939,Market Pl X Smokewidow,427 E Smith St,,Kent,WA,98030,4545,KING,Convenience Store,47.383602,-122.22853,,,-13606417.720010364,6004914.00750525
990473,Dash Point Arco,1600 SW 312th St,,Federal Way,WA,98023,4407,KING,Convenience Store,47.322636,-122.35545,,,-13620546.389781844,5994896.405799176
1370731,Dollar Tree 7965,12722 SE 312th St,Ste K,Auburn,WA,98092,    ,KING,Other,47.322483,-122.1734,,,-13600280.676482929,5994871.280220945
1327599,Arco Ampm 7040,24014 116th Ave SE,,Kent,WA,98030,5063,KING,Convenience Store,47.386265,-122.18671,,,-13601762.338905388,6005351.841139052
1305185,Arco Ampm 7112,12903 NE 20th St,,Bellevue,WA,98005,1903,KING,Convenience Store,47.628044,-122.16782,,,-13599659.513724305,6045196.188853422
1328660,Bellevue Farmers Market,1717 Bellevue Way NE,,Bellevue,WA,98004,2853,KING,Farmers and Markets,47.626331,-122.20538,,,-13603840.6737985,6044913.245388175
1397626,Del Rio Supermarkets,24811 Pacific Hwy S,,Kent,WA,98032,1613,KING,Supermarket,47.378551,-122.29868,,,-13614226.78228951,6004083.614756062
1395871,Kk Market,23805 104th Ave SE,,Kent,WA,98031,3313,KING,Grocery Store,47.388805,-122.20313,,,-13603590.204944212,6005769.472501074
1595437,Macpherson's Produce,4500 15th Ave S,,Seattle,WA,98108,1818,KING,Grocery Store,47.563084,-122.3131,,,-13615832.009346751,6034472.9547224725
1397162,The Souk N/A,1916 Pike Pl,Ste 11,Seattle,WA,98101,1056,KING,Other,47.610062,-122.34281,,,-13619139.311418217,6042226.487854164
1397184,Michigan 76,551 S Michigan St,,Seattle,WA,98108,3316,KING,Convenience Store,47.545723,-122.32677,,,-13617353.746785894,6031609.35005646
1643613,Grocery Outlet Of Lake City 118,3020 NE 127th St,,Seattle,WA,98125,4415,KING,Super Store,47.721748,-122.2952,,,-13613839.39046155,6060687.826804298
1575495,La Mexicana,17208 Bothell Way Ne,Ste B,Bothell,WA,98011,1954,KING,Grocery Store,47.752628,-122.21136,,,-13604506.36435344,6065799.173808561
1578249,Papa Murphy's Pizza WA080,23880 SE Kent Kangley Rd,,Maple Valley,WA,98038,6848,KING,Specialty Store,47.361794,-122.02339,,,-13583581.63966903,6001329.305834964
1349732,Kings Deli And Grocery Llc,2800 E Cherry St,Ste C,Seattle,WA,98122,5007,KING,Grocery Store,47.608021,-122.29585,,,-13613911.748130566,6041889.484220201
1349766,7-eleven 32658C,1200 SW 43rd St,,Renton,WA,98057,4829,KING,Convenience Store,47.441208,-122.23342,,,-13606962.07232034,6014390.162898408
1360543,Dollar Tree 7848,2819 NE Sunset Blvd,,Renton,WA,98056,3105,KING,Other,47.501202,-122.17928,,,-13600935.235088795,6024270.179615277
1377659,Ballinger Village Thriftway 040193,20150 Ballinger Way Ne,,Shoreline,WA,98155,1117,KING,Other,47.775513,-122.31075,,,-13615570.408543384,6069589.122377036
1172034,H Mart,100 108th Ave  NE,,Bellevue,WA,98004,    ,KING,Super Store,47.61108,-122.19616,,,-13602814.308093386,6042394.581794591
1269395,7-eleven 37068A,810 3rd Ave,,Seattle,WA,98104,1655,KING,Convenience Store,47.604603,-122.33304,,,-13618051.719993168,6041325.144037992
1307968,Arco Ampm 7064,3648 Auburn Way N,,Auburn,WA,98002,1801,KING,Convenience Store,47.339802,-122.22227,,,-13605720.859997997,5997715.859362486
1307969,Arco Ampm 7050,1901 NE 205th St,,Shoreline,WA,98155,1221,KING,Convenience Store,47.777439,-122.30848,,,-13615317.713299284,6069908.160269307
1378488,Puget Consumers Co-op West Seattle 19,2749 California Ave SW,,Seattle,WA,98116,2405,KING,Supermarket,47.577736,-122.38674,,,-13624029.576648766,6036890.462767084
1378603,Whole Foods Market 10524,4755 Fauntleroy Way SW,Unit 190,Seattle,WA,98116,4671,KING,Super Store,47.559933,-122.38152,,,-13623448.488906825,6033953.143544966
1378852,Auburnwa Grocery Outlet 158,102 Cross St SE,,Auburn,WA,98002,5408,KING,Super Store,47.303955,-122.22797,,,-13606355.381095517,5991829.159741804
1255224,CVS 10331,531 Queen Anne Ave N,,Seattle,WA,98109,4521,KING,Other,47.624222,-122.35677,,,-13620693.33150969,6044564.905661244
1638006,Don And Joe's,85 Pike St,,Seattle,WA,98101,2085,KING,Specialty Store,47.608326,-122.34081,,,-13618916.67243663,6041939.844045061
1361010,CVS Pharmacy 11076,503 Westlake Ave N,,Seattle,WA,98109,4304,KING,Other,47.623375,-122.33849,,,-13618658.411217991,6044425.012154098
1399656,Baraka Wholesale,15035 Military Rd S,,Seatac,WA,98188,2139,KING,Grocery Store,47.467751,-122.28907,,,-13613157.001982985,6018759.963709033
1399801,Arco Ampm 7070,3910 S 320th St,,Auburn,WA,98001,3116,KING,Convenience Store,47.315456,-122.28419,,,-13612613.762867916,5993717.388444305
1399802,Arco Ampm 7073,17450 SE 272nd St,,Covington,WA,98042,4949,KING,Convenience Store,47.358135,-122.10777,,,-13592974.778302167,6000728.000936851
1350933,7-eleven 14470B,1600 Sw Holden St,,Seattle,WA,98106,1879,KING,Convenience Store,47.533722,-122.35538,,,-13620538.597417489,6029630.403272089
1350959,7 Eleven 35532b 35532,819 Virginia St,Ste C1,Seattle,WA,98101,4433,KING,Convenience Store,47.616116,-122.33602,,,-13618383.452075733,6043226.183056476
1362179,Lake City Farmers Market,12501 28th Ave NE,,Seattle,WA,98125,4319,KING,Farmers and Markets,47.719753,-122.29811,,,-13614163.330179758,6060357.712844604
1362188,Columbia City Farmers Market,4801 Rainier Ave S,,Seattle,WA,98118,2181,KING,Farmers and Markets,47.559231,-122.28681,,,-13612905.419933796,6033837.340933606
1362195,Phinney Farmers Market,6615 Dayton Ave N,,Seattle,WA,98103,5215,KING,Farmers and Markets,47.677357,-122.35287,,,-13620259.185495598,6053345.405343531
1362219,Magnolia Farmers Market,2550 34th Ave W,,Seattle,WA,98199,3240,KING,Farmers and Markets,47.642532,-122.39977,,,-13625480.069613803,6047589.604150168
1362224,Capital Hill Farmers Market, E Denny Way,between Broadway and 10th Ave,Seattle,WA,98102,    ,KING,Farmers and Markets,47.618504,-122.32851,,Washington State Department of Health ,-13617547.442699872,6043620.544611457
1584104,Rose Bakery,25805 104th Ave SE,,Kent,WA,98030,7607,KING,Grocery Store,47.370426,-122.20334,,,-13603613.582037281,6002748.018209887
1361727,Pike Place Fish Market Inc.,86 Pike St,,Seattle,WA,98101,2025,KING,Specialty Store,47.608776,-122.34043,,,-13618874.37103013,6042014.145962279
1379504,Enat Market,14616 15th Ave NE,,Shoreline,WA,98155,7103,KING,Grocery Store,47.735542,-122.31239,,,-13615752.972508285,6062970.675009078
1379682,Enat Souk Deli,11546 15th Ave NE,,Seattle,WA,98125,6322,KING,Specialty Store,47.71365,-122.31245,,,-13615759.651677733,6059347.9239049405
1378922,Balageru International Mart,7631 Rainier Ave S,,Seattle,WA,98118,3947,KING,Grocery Store,47.533779,-122.27052,,,-13611092.025428772,6029639.801415529
1380157,Burien76,12660 1st Ave S,,Seattle,WA,98168,2617,KING,Convenience Store,47.488899,-122.33382,,,-13618138.549195988,6022243.159990934
1374832,Dollar Tree 7906,12000 Des Moines Dr S,,Burien,WA,98168,2228,KING,Other,47.495224,-122.31037,,,-13615528.107136885,6023285.196025907
1258415,Ethio Mini Market,8432 Rainier Ave S,,Seattle,WA,98118,4655,KING,Grocery Store,47.527023,-122.26964,,,-13610994.064276874,6028525.945239844
1310943,Arco Ampm 7052,2900 NE 3rd St,,Renton,WA,98056,4000,KING,Convenience Store,47.487701,-122.17966,,,-13600977.536495296,6022045.805087678
1310945,Arco Ampm 7013,5620 Martin Luther King Jr Way S,,Seattle,WA,98118,2239,KING,Convenience Store,47.551468,-122.28762,,,-13612995.588721337,6032556.852245285
1310155,Military Rd Chevron,27121 Military Rd S,,Kent,WA,98032,7007,KING,Convenience Store,47.358078,-122.29205,,,-13613488.734065553,6000718.634122905
1363780,El Toreo Tienda Y Carniceria,29314 Pacific Hwy S,Ste 101b,Federal Way,WA,98003,3863,KING,Grocery Store,47.338913,-122.31217,,,-13615728.482220313,5997569.821816117
1458364,Bkkn Llc,9861 Aurora Ave N,,Seattle,WA,98103,3224,KING,Convenience Store,47.700985,-122.34514,,,-13619398.685831765,6057252.778191157
1364068,K Smoke Mart,11726 Aurora Ave N,,Seattle,WA,98133,8200,KING,Convenience Store,47.715,-122.34447,,,-13619324.101772936,6059571.281744366
1458289,Watan Bakery & Halal Store,23811 104th Ave SE,Ste 103,Kent,WA,98031,3311,KING,Grocery Store,47.388569,-122.20307,,,-13603583.525774766,6005730.668109104
1384520,C & C Food Store,3002 Beacon Ave S,,Seattle,WA,98144,5817,KING,Convenience Store,47.57679,-122.30933,,,-13615412.334866459,6036734.356986566
1261958,Outlet Chevron Food Mart 1,1402 Outlet Collection Way Sw,,Auburn,WA,98001,6527,KING,Convenience Store,47.296188,-122.24996,,,-13608803.296698062,5990554.209763367
1261184,BELLEVUE (CENTRAL) 162,416 116th Ave NE,,Bellevue,WA,98004,5209,KING,Supermarket,47.614044,-122.18558,,,-13601636.547880793,6042884.0212917235
1261196,Dollar Tree 7063,12030 NE 85th St,,Kirkland,WA,98033,8039,KING,Other,47.679298,-122.17962,,,-13600973.083715664,6053666.322651405
1384339,7-eleven 38805A,2415 Griffin Ave,,Enumclaw,WA,98022,2409,KING,Convenience Store,47.206863,-122.00056,,,-13581040.215694219,5975904.987056756
1384502,Emanuel 76 On Redmond Fall City Rd,23530 NE Redmond Fall City Rd,,Redmond,WA,98053,8372,KING,Convenience Store,47.64473,-122.02519,,,-13583782.014752459,6047952.771386015
1260628,Dollar Tree 7045,1005 Stevenson Ave,,Enumclaw,WA,98022,2912,KING,Other,47.201466,-121.9897,,,-13579831.286024205,5975020.674532212
1311793,S Mart,5629 119th Ave Se,,Bellevue,WA,98006,3715,KING,Supermarket,47.552025,-122.17912,,,-13600917.423970265,6032648.721775231
1386105,7-eleven 38807a,20727 108th Ave SE,,Kent,WA,98031,1535,KING,Convenience Store,47.416252,-122.19707,,,-13602915.608830005,6010283.641923898
1384980,Tienda Tikal,15420 Ambaum Blvd SW,,Burien,WA,98166,2423,KING,Grocery Store,47.464298,-122.34324,,,-13619187.178799257,6018191.36801515
1385916,European Deli And Produce 1,8530 122nd Ave NE,,Kirkland,WA,98033,5831,KING,Grocery Store,47.680092,-122.1773,,,-13600714.822497021,6053797.602930222
1386440,Barclay Seafoods,19115 84th Ave S,,Kent,WA,98032,1207,KING,Other,47.431396,-122.22846,,,-13606409.927646006,6012775.3616159605
1263801,Costco 1225,7725 188th Ave NE,,Redmond,WA,98052,6088,KING,Super Store,47.667694,-122.08782,,,-13590753.95446084,6051747.940547754
1386476,Papa Murphy's Pizza WA168,4435 A St SE,Ste B,Auburn,WA,98002,8619,KING,Specialty Store,47.268551,-122.22919,,,-13606491.190874286,5986019.125207918
1386477,Papa Murphy's Pizza WA196,31653 Pacific Hwy S,Ste F,Federal Way,WA,98003,5496,KING,Specialty Store,47.317608,-122.31548,,,-13616096.949734837,5994070.748419948
1582309,Gelemsiyi Halal Grocery,6301 Rainier Ave S,Ste 5,Seattle,WA,98118,2789,KING,Grocery Store,47.545868,-122.27625,,,-13611729.886111017,6031633.263107489
1387126,Papa Murphy's Pizza WA103,14182 NE Woodinville Duvall Rd,,Woodinville,WA,98072,8551,KING,Specialty Store,47.754684,-122.15046,,,-13597727.007364132,6066139.5965512525
1387128,Papa Murphy's Pizza WA139,11312 NE 124th St,,Kirkland,WA,98034,4303,KING,Specialty Store,47.711212,-122.19006,,,-13602135.259199547,6058944.5708523085
1386842,Lam's Seafood Asian Market,243 Minkler Blvd,,Tukwila,WA,98188,5151,KING,Super Store,47.448654,-122.2599,,,-13609909.812436549,6015615.782809432
1365391,Seattle Chinese Herbs,6951 Martin Luther King Jr Way S,Ste 105,Seattle,WA,98118,3545,KING,Other,47.539429,-122.28249,,,-13612424.519733567,6030571.422470326
1461090,Columbia City Mart 01,3810 S Edmunds St,,Seattle,WA,98118,1730,KING,Convenience Store,47.558807,-122.28487,,,-13612689.460121654,6033767.3982276255
759994,BARTELL DRUGS 40,10116 NE EIGHTH ST,,BELLEVUE,WA,98004,4148,KING,Other,47.618504,-122.20549,,,-13603852.918942487,6043620.544611457
759990,BARTELL DRUGS 38,2222 32nd Ave W,,Seattle,WA,98199,4044,KING,Other,47.638817,-122.39752,,,-13625229.60075952,6046975.823472358
1352592,Qazi Brothers Llc,17658 W Snoqualmie River Rd NE,,Duvall,WA,98019,9203,KING,Specialty Store,47.757435,-121.97995,,,-13578745.92098897,6066595.1151424255
1329453,7-eleven 25303d,511 Central Ave S,,Kent,WA,98032,5903,KING,Convenience Store,47.377613,-122.23064,,,-13606652.604135934,6003929.414763907
1461618,7-eleven #14441a,11505 SE 168th St,,Renton,WA,98055,5931,KING,Convenience Store,47.451946,-122.18657,,,-13601746.754176678,6016157.704996954
1329519,Burien Banana Market,233 SW 152nd St,,Burien,WA,98166,2307,KING,Grocery Store,47.466816,-122.33799,,,-13618602.751472596,6018605.99622931
1329552,Dollar Tree 7396,6623 132nd Ave NE,,Kirkland,WA,98033,8627,KING,Other,47.665161,-122.16415,,,-13599250.971193092,6051329.239775664
1390267,Royal Auburn 76,1111 17th St SE,,Auburn,WA,98002,6936,KING,Grocery Store,47.29377,-122.21397,,,-13604796.908224413,5990157.334245814
1389821,Buena Market,13621 Ambaum Blvd SW,,Burien,WA,98166,1223,KING,Convenience Store,47.480602,-122.34825,,,-13619744.889448132,6020876.429615638
1429722,DOLLARTREE 8506,7730 Center Blvd SE,,Snoqualmie,WA,98065,8743,KING,Other,47.530437,-121.87157,,,-13566681.114576796,6029088.790684552
1428984,Rose Market,12001 NE 12th St,Ste 79,Bellevue,WA,98005,2418,KING,Grocery Store,47.620178,-122.17885,,,-13600887.367707752,6043897.004782084
1330056,Addis Market LLC,13500 Aurora Ave N,,Seattle,WA,98133,7523,KING,Grocery Store,47.727016,-122.34496,,,-13619378.648323422,6061559.586992421
1429133,Jay's Mini Mart,15815 1st Ave S,,Burien,WA,98148,1294,KING,Convenience Store,47.461205,-122.33443,,,-13618206.45408537,6017682.0842083655
1331509,Fasika Grocery,7900 Renton Ave S,,Seattle,WA,98118,4434,KING,Other,47.531441,-122.27824,,,-13611951.411897695,6029254.321038346
1331688,West Kent Grocery Outlet,26104 Pacific Hwy S,,Kent,WA,98032,6910,KING,Supermarket,47.367512,-122.30434,,,-13614856.850607399,6002269.061776
1329855,Whole Foods Market 10655,12501 120th Ave NE,,Kirkland,WA,98034,7501,KING,Super Store,47.710442,-122.17966,,,-13600977.536495296,6058817.182709861
1331117,Burien Grocery Outlet,236 SW 152nd St,,Burien,WA,98166,2308,KING,Other,47.466869,-122.33829,,,-13618636.147319833,6018614.723724453
1329942,Seahurst Handymart,15219 21st Ave SW,,Burien,WA,98166,2007,KING,Convenience Store,47.466198,-122.36104,,,-13621168.66573538,6018504.230992067
1331157,Tom's Finer Food,3306 S 170th St,,Seatac,WA,98188,4497,KING,Convenience Store,47.451141,-122.28978,,,-13613236.03882145,6016025.184439365
1576036,Yaran Market ,1404 Central Ave S,Ste 104,Kent,WA,98032,7433,KING,Grocery Store,47.366856,-122.2292,,,-13606492.304069193,6002161.242699918
1419507,Dhotsons ,12722 SE 312th St,Ste L,Auburn,WA,98092,3145,KING,Grocery Store,47.324089,-122.17221,,,-13600148.206288887,5995135.020309573
1391945,Hillcrest Market,110 Summit Ave E,,Seattle,WA,98102,5676,KING,Grocery Store,47.618866,-122.32525,,,-13617184.541159887,6043680.327960366
1462716,Iman Supermarket,9830 16th Ave SW,,Seattle,WA,98106,2829,KING,Other,47.514584,-122.35482,,,-13620476.258502645,6026475.512704016
1392083,Dollar Tree 8349,2209 Bel Red Rd,,Redmond,WA,98052,5512,KING,Other,47.629963,-122.13544,,,-13596054.988612415,6045513.169224415
1112041,DOLLARTREE 5255,20618 108th Ave SE,,Kent,WA,98031,1536,KING,Other,47.416695,-122.19544,,,-13602734.158060014,6010356.520800939
1332058,East African Imports,306 23rd Ave S,Ste 104,Seattle,WA,98144,2371,KING,Grocery Store,47.600056,-122.30221,,,-13614619.740092011,6040574.453734453
1585840,Skyway Farmers Market And Bazaar,12424 76th Ave S,,Seattle,WA,98178,4809,KING,Farmers and Markets,47.491226,-122.23807,,,-13607479.707952531,6022626.515810061
1431162,Harvey 76,810 Harvey Rd NE,,Auburn,WA,98002,4224,KING,Convenience Store,47.315639,-122.21406,,,-13604806.926978584,5993747.436618446
1591555,Speed Cigar And Grocery,4033 Ne Sunset Blvd,Ste 2,Renton,WA,98056,3368,KING,Convenience Store,47.503803,-122.16548,,,-13599399.026115846,6024698.77641006
1356790,Powar Supermarket Inc,25414 104th Ave SE,,Kent,WA,98030,6435,KING,Grocery Store,47.373676,-122.20235,,,-13603503.375741392,6003282.232134505
1357011,Arco Ampm 7155,7301 Delridge Way SW,,Seattle,WA,98106,1740,KING,Convenience Store,47.537155,-122.36127,,,-13621194.269218262,6030196.453535943
1400424,European Foods 5411,13520 Aurora Ave N,,Seattle,WA,98133,7512,KING,Grocery Store,47.72747,-122.34498,,,-13619380.874713242,6061634.720034224
1400534,Stockbox,901 James St,,Seattle,WA,98104,2115,KING,Grocery Store,47.60553,-122.32462,,,-13617114.409880688,6041478.195791139
1357650,Willis Super Shell,25014 74th Ave S,,Kent,WA,98032,6031,KING,Convenience Store,47.377586,-122.24229,,,-13607949.476203678,6003924.976212
1449791,Amazon Fresh MAB6,2301 S Jackson St,,Seattle,WA,98144,2357,KING,Super Store,47.59882,-122.30186,,,-13614580.778270233,6040370.406684953
1600757,Yellow Bee Cypress,922 E Yesler Way,,Seattle,WA,98122,5418,KING,Grocery Store,47.601879,-122.31992,,,-13616591.208273958,6040875.415422239
1420983,La Supermax - Redmond Mart,17020 Avondale Way NE,,Redmond,WA,98052,4409,KING,Convenience Store,47.673035,-122.11263,,,-13593515.791027423,6052630.865742614
1382219,Puget Consumers Co-Op Ballard 18,1451 NW 46th St,,Seattle,WA,98107,4635,KING,Supermarket,47.662186,-122.37505,,,-13622728.251801394,6050837.503068325
1382239,H Mart,1601 2nd Ave,,Seattle,WA,98101,3508,KING,Supermarket,47.61055,-122.34018,,,-13618846.54115743,6042307.066859351
1422098,7 Eleven  38806a,10255 SE 240th St,,Kent,WA,98031,5183,KING,Convenience Store,47.38649,-122.20277,,,-13603550.129927527,6005388.835230772
1465629,7-eleven #38862a,100 Ellingson Rd,,Pacific,WA,98047,    ,KING,Convenience Store,47.271908,-122.24654,,,-13608422.584039548,5986569.864649189
1338913,Twin Lakes Grocery,3420 SW 320th St,Ste B1,Federal Way,WA,98023,2291,KING,Convenience Store,47.313782,-122.37463,,,-13622681.497615261,5993442.5263694385
1577810,Mont's Market,2350 24th Ave E,Ste B,Seattle,WA,98112,2607,KING,Convenience Store,47.640053,-122.30166,,,-13614558.514372075,6047180.026680741
1402661,City Neighbor Inc. 82481,665 23rd Ave,,Seattle,WA,98122,6000,KING,Convenience Store,47.60783,-122.30327,,,-13614737.738752251,6041857.94756138
1450105,Clara African Store 1,29017 23rd Pl S,,Federal Way,WA,98003,7927,KING,Other,47.341278,-122.30343,,,-13614755.549870778,5997958.329830682
1402124,Sprouts Farmers Market 457,13010 Aurora Ave N,,Seattle,WA,98133,7507,KING,Supermarket,47.723736,-122.34492,,,-13619374.195543792,6061016.795044933
1568644,Shoreline Shell,17505 Aurora Ave N,,Shoreline,WA,98133,4812,KING,Convenience Store,47.756268,-122.34629,,,-13619526.70324618,6066401.876942732
1342225,7-eleven 23930c,14501 Juanita Woodinville Way NE,,Bothell,WA,98011,4877,KING,Convenience Store,47.733253,-122.19512,,,-13602698.53582296,6062591.813421866
1475500,Madrona Market & Deli Llc,3309 E Union St,,Seattle,WA,98122,3371,KING,Convenience Store,47.612743,-122.28977,,,-13613234.925626542,6042669.186301718
1409947,Papa Murphy's Take 'n' Bake Pizza WA204,6519 132nd Ave NE,,Kirkland,WA,98033,8628,KING,Specialty Store,47.664631,-122.16515,,,-13599362.290683884,6051241.634209808
1437024,Grocery Outlet Of Maple Valley 233,26525 Maple Valley Black Diamond Rd SE,,Maple Valley,WA,98038,8391,KING,Super Store,47.363716,-122.02365,,,-13583610.582736636,6001645.176057452
1410470,Tabarak Market,15213 Military Rd S,,Seatac,WA,98188,2141,KING,Grocery Store,47.466663,-122.2887,,,-13613115.813771393,6018580.801811559
1410637,ABC Herb & Grocery 02,610 S Weller St,,Seattle,WA,98104,2925,KING,Other,47.597664,-122.32581,,,-13617246.880074732,6040179.570926621
1410638,Anh Shenh,1041 S King St,,Seattle,WA,98104,3020,KING,Other,47.59816,-122.31779,,,-13616354.09775857,6040261.451496804
1436080,Kent Valley Arco,21214 84th Ave S,,Kent,WA,98032,1967,KING,Convenience Store,47.411564,-122.22732,,,-13606283.023426505,6009512.446594692
1422189,Bombay Fiji Bazaar,24700 36th Ave S,Ste 104,Kent,WA,98032,1518,KING,Grocery Store,47.380318,-122.28532,,,-13612739.553892512,6004374.103429439
1403283,Hong Kong Market In Burien LLC,129 SW 148th St,,Burien,WA,98166,1923,KING,Super Store,47.470417,-122.33546,,,-13618321.113160888,6019198.991904241
1453637,Shah's Deli & Mart,26032 Pacific Hwy S,,Kent,WA,98032,6936,KING,Grocery Store,47.367943,-122.30235,,,-13614635.324820722,6002339.900953777
1403616,Feleg Food Mart None,11463 Rainier Ave S,,Seattle,WA,98178,3963,KING,Convenience Store,47.499516,-122.22079,,,-13605556.107151622,6023992.36927588
1453657,Al-jamil-llc,9823 15th Ave SW,Ste A,Seattle,WA,98106,2847,KING,Grocery Store,47.514992,-122.35448,,,-13620438.409875775,6026542.759312468
1476650,Shree Truck Stop Seattle,7801 Detroit Ave SW,,Seattle,WA,98106,3901,KING,Convenience Store,47.532284,-122.33643,,,-13618429.093066957,6029393.309629475
1477740,Madison Park Shell,3100 E Madison St,,Seattle,WA,98112,4233,KING,Convenience Store,47.626671,-122.29218,,,-13613503.205599353,6044969.403890617
1424263,Snoqualmie 76,8250 Railroad Ave Se,,Snoqualmie,WA,98065,    ,KING,Convenience Store,47.526424,-121.8231,,,-13561285.458858045,6028427.195525706
1579078,Queen Safa Market & Deli 1,23424 Pacific Hwy S,,Kent,WA,98032,2718,KING,Grocery Store,47.391502,-122.29451,,,-13613762.580012903,6006212.940116254
1412107,Wanli Seafood Market,7762 Beacon Ave S,,Seattle,WA,98118,4013,KING,Specialty Store,47.532658,-122.28847,,,-13613090.210288512,6029454.973136278
1424073,Target Store T3275,272 116th Ave NE,,Bellevue,WA,98004,5213,KING,Super Store,47.612705,-122.18554,,,-13601632.095101159,6042662.911416933
1512057,Mdm Super Market,10610 SE Kent Kangley Rd,,Kent,WA,98030,7210,KING,Grocery Store,47.371746,-122.19865,,,-13603091.49362546,6002964.9872798715
1454379,Juanita Friday Market,9703 NE Juanita Dr,,Kirkland,WA,98034,4201,KING,Farmers and Markets,47.704472,-122.21558,,,-13604976.13260459,6057829.574867736
1512401,Khalij Market,23227 Pacific Hwy S,,Kent,WA,98032,2721,KING,Grocery Store,47.393009,-122.29686,,,-13614024.180816267,6006460.745956591
1512461,Grocery Outlet Of Bridle Trails 354,6625 132nd Ave NE,,Kirkland,WA,98033,8627,KING,Supermarket,47.665066,-122.16586,,,-13599441.327522349,6051313.536825789
1478739,Afran Market,25600 Pacific Hwy S,,Kent,WA,98032,5556,KING,Grocery Store,47.371964,-122.30025,,,-13614401.553890055,6003000.820573009
1413281,Maple Valley Farmers Market,25719 Maple Valley Black Diamond Rd Se,,Maple Valley,WA,98038,    ,KING,Farmers and Markets,47.373489,-122.02394,,Washington State Department of Health ,-13583642.865388967,6003251.493394502
1455463,7-Eleven Store 42048H,34727 Pacific Hwy S,,Federal Way,WA,98003,6868,KING,Convenience Store,47.290333,-122.31831,,,-13616411.983893784,5989593.237618632
1406188,Amen Market,16053 Aurora Ave N,Ste D,Shoreline,WA,98133,2610,KING,Grocery Store,47.746475,-122.34563,,,-13619453.232382255,6064780.469557001
1437082,Asle Service Station Llc. 83941,2802 Rainier Ave S,,Seattle,WA,98144,6010,KING,Convenience Store,47.578033,-122.2974,,,-13614084.293341296,6036939.473303176
1657289,Alhamdani Grocery And Sweets,10603 SE 240th St,,Kent,WA,98031,4903,KING,Convenience Store,47.38662,-122.19958,,,-13603195.020751897,6005410.209666853
1665917,CVS Pharmacy 11649,1929 Queen Anne Ave N,,Seattle,WA,98109,2549,KING,Other,47.636784,-122.35735,,,-13620757.896814352,6046639.95604876
1513082,Byblos Market,10460 SE 256th St,,Kent,WA,98030,7688,KING,Grocery Store,47.373024,-122.20024,,,-13603268.491615819,6003175.0579627305
1513453,Apna Bazar,10120 SE 260th St,,Kent,WA,98030,8016,KING,Other,47.369331,-122.2055,,,-13603854.032137392,6002568.036624842
1660433,Sea Market,9627 Des Moines Memorial Dr,,Seattle,WA,98108,5033,KING,Grocery Store,47.515766,-122.31483,,,-13616024.592065824,6026670.331521182
1438628,786 Market ,24823 Pacific Hwy S,Ste 101,Kent,WA,98032,5478,KING,Grocery Store,47.377815,-122.29972,,,-13614342.554559935,6003962.62177992
1424887,Valley Mart,320 1st Ave N,,Algona,WA,98001,8542,KING,Convenience Store,47.278927,-122.25016,,,-13608825.56059622,5987721.493818227
1264160,Senait Store Market,3116 NE 125th St,,Seattle,WA,98125,4515,KING,Grocery Store,47.719475,-122.29437,,,-13613746.995284192,6060311.7130055865
1456468,Cultivate Farms NAFMNP,26826 86th Ave S,,Kent,WA,98030,7567,KING,Farmers and Markets,47.359039,-122.22703,,,-13606250.740774171,6000876.556672285
1642347,365 Mart 12702,12702 Renton Ave S,,Seattle,WA,98178,4850,KING,Convenience Store,47.49015,-122.23791,,,-13607461.896834005,6022449.250758908
1415467,Puget Consumers Co-Op Bellevue 20,11615 NE 4th St,,Bellevue,WA,98004,5268,KING,Supermarket,47.613743,-122.19469,,,-13602650.668441918,6042834.316487506
1456928,Vital Tea Lounge,651 S Jackson St,,Seattle,WA,98104,2928,KING,Grocery Store,47.598976,-122.32468,,,-13617121.089050137,6040396.15993025
1479421,One-stop Pantry,4798 Auburn Way N,Ste 103,Auburn,WA,98002,1501,KING,Convenience Store,47.35041,-122.22562,,,-13606093.780292155,5999458.643382416
1408061,Puget Consumers Co-Op Downtown 24,2230 E Union St,,Seattle,WA,98122,2956,KING,Super Store,47.613304,-122.30296,,,-13614703.229710106,6042761.823947102
1439623,Kent Saar's Super Saver Foods 632,25928 104th Ave SE,,Kent,WA,98030,7606,KING,Super Store,47.369457,-122.20069,,Washington State Department of Health ,-13603318.585386677,6002588.746644377
1439632,Fou Lee Market,2050 S Columbian Way,,Seattle,WA,98108,1536,KING,Supermarket,47.560032,-122.30521,,,-13614953.698564392,6033969.474807305
1439057,Seven Market,19305 55th Ave NE,,Lake Forest Park,WA,98155,3103,KING,Convenience Store,47.768963,-122.26941,,,-13610968.460793989,6068504.216929236
1426338,Latin Market,217 S 4th Pl,,Renton,WA,98057,2426,KING,Grocery Store,47.476494,-122.21435,,,-13604839.209630914,6020199.815713942
1491495,Lh7 Llc,16402 Military Rd S,,Tukwila,WA,98188,3074,KING,Convenience Store,47.455982,-122.28069,,,-13612224.14465014,6016822.14920683
1426541,7-eleven 23938e,4026 A St SE,,Auburn,WA,98002,8642,KING,Convenience Store,47.272209,-122.22827,,,-13606388.776942758,5986619.247521015
1438738,Tienda Latina,927B Harrington Ave NE,,Renton,WA,98056,3013,KING,Convenience Store,47.498016,-122.18166,,,-13601200.175476883,6023745.21455133
1439293,Madrona Farmers Market,1126 Martin Luther King Jr Way,,Seattle,WA,98122,5052,KING,Farmers and Markets,47.612385,-122.29539,,,-13613860.541164799,6042610.070462782
1497764,Ampm Lake Meridian,13130 SE Kent Kangley Rd,,Kent,WA,98030,7915,KING,Convenience Store,47.358448,-122.16602,,,-13599459.138640875,6000779.436428861
1514361,Public Halal Market 0,225 W Meeker St,,Kent,WA,98032,5820,KING,Grocery Store,47.381763,-122.23444,,,-13607075.61820095,6004611.663655537
1514481,7-eleven,21454 Pacific Hwy S,,Seatac,WA,98198,6073,KING,Convenience Store,47.40863,-122.29802,,,-13614153.311425587,6009029.8264235025
1497540,Lucky 5,8856 35th Ave SW,,Seattle,WA,98126,3606,KING,Convenience Store,47.523083,-122.37622,,,-13622858.495605621,6027876.4269036
1483054,Rainier Am/pm,251 Rainier Ave N,,Renton,WA,98057,5323,KING,Convenience Store,47.485245,-122.2186,,,-13605312.317466784,6021641.225135121
1416971,7-Eleven #38700A,12400 SE 312th St,,Auburn,WA,98092,3147,KING,Convenience Store,47.322994,-122.17571,,,-13600537.82450666,5994955.196652173
1483194,Quick Chic,9001 16th Ave SW,,Seattle,WA,98106,2355,KING,Grocery Store,47.52272,-122.35538,,,-13620538.597417489,6027816.587947753
1483223,Zip Market,1431 Market St,,Kirkland,WA,98033,5432,KING,Convenience Store,47.687145,-122.21029,,,-13604387.252498293,6054963.83649146
1483274,Friendly Gas Station,16510 Aurora Ave N,,Shoreline,WA,98133,5309,KING,Convenience Store,47.749023,-122.34508,,,-13619392.006662318,6065202.307446892
1498021,Runlands Grocery,2206 Roosevelt Ave,,Enumclaw,WA,98022,2519,KING,Convenience Store,47.199043,-121.99767,,,-13580718.502365826,5974623.688923011
1481339,QFC 859,2636 Bellevue Way NE,,Bellevue,WA,98004,2209,KING,Super Store,47.634525,-122.20068,,,-13603317.47219177,6046266.766993681
1481138,7-eleven #15525e,3120 S 176th St,,Seatac,WA,98188,4006,KING,Convenience Store,47.445694,-122.29213,,,-13613497.639624815,6015128.54273029
1499033,M2m Mart,128 Broadway E,,Seattle,WA,98102,5712,KING,Other,47.619328,-122.32036,,,-13616640.188849907,6043756.626647786
1498398,Pacific Ampm,401 Ellingson Rd,,Pacific,WA,98047,1004,KING,Convenience Store,47.272163,-122.25692,,,-13609578.08035398,5986611.700618767
1516910,Wallingford Snack Shack,1420 N 45th St,,Seattle,WA,98103,6707,KING,Convenience Store,47.661686,-122.33955,,,-13618776.409878232,6050754.86099425
1517486,Jims Market & Deli,7500 Martin Luther King Jr Way S,,Seattle,WA,98118,3735,KING,Convenience Store,47.534565,-122.28043,,,-13612195.201582532,6029769.397908841
1595133,Food Mart & Gas,12248 Aurora Ave N,Ste A,Seattle,WA,98133,8180,KING,Convenience Store,47.719273,-122.34438,,,-13619314.083018765,6060278.288816095
1586532,Saveway Market,109 Occidental Ave S,,Seattle,WA,98104,2517,KING,Convenience Store,47.601341,-122.33327,,,-13618077.32347605,6040786.595138887
1483952,CHEVRON STATION 1013,2701 216th Ave SE,,Maple Valley,WA,98038,    ,KING,Convenience Store,47.430889,-122.05348,,,-13586931.243146999,6012691.930716941
1492032,Koza Turkish Mediterranean  Grocery,939 6th St S,,Kirkland,WA,98033,6712,KING,Convenience Store,47.667267,-122.19683,,,-13602888.892152218,6051677.356719682
1492447,Amazon Fresh MAB7,13201 Aurora Ave N,,Seattle,WA,98133,7584,KING,Super Store,47.725433,-122.3465,,,-13619550.080339245,6061297.6194163645
1492136,Puget Consumers Co-op 23,430 Kirkland Way,,Kirkland,WA,98033,6615,KING,Supermarket,47.676014,-122.19992,,,-13603232.869378766,6053123.365992046
1493454,Awaday Trading Inc,6727 Mlk Jr Way S,Ste C,Seattle,WA,98118,3205,KING,Grocery Store,47.541641,-122.28389,,,-13612580.367020676,6030936.183581913
1517924,Madina Halal Market,21630 Pacific Hwy S,,Des Moines,WA,98198,7701,KING,Grocery Store,47.407467,-122.2978,,,-13614128.821137613,6008838.529412968
1660261,Crossroads Farmers Market 1,15600 NE 8th St,,Bellevue,WA,98008,3927,KING,Farmers and Markets,47.617397,-122.13181,,,-13595650.898860836,6043437.729038119
1518022,Sammi's Mini Halal Market,7184 Sylvan Way SW,,Seattle,WA,98106,1761,KING,Grocery Store,47.537594,-122.36275,,,-13621359.022064636,6030268.84073106
1518793,Stadium Chevron 4212,18725 Bothell Way NE,,Bothell,WA,98011,1930,KING,Convenience Store,47.763947,-122.20852,,,-13604190.21699959,6067673.487058348
1600927,Ravensdale Market,27534 SE Kent Kangley Rd,,Ravensdale,WA,98051,9582,KING,Convenience Store,47.35807,-121.97425,,,-13578111.39989145,6000717.319483162
1482381,Northshore Marathon,2100 SW 356th St,,Federal Way,WA,98023,3058,KING,Convenience Store,47.283005,-122.36172,,,-13621244.362989118,5988390.654132774
1482390,India Village,10457 SE 240th St,,Kent,WA,98031,5301,KING,Grocery Store,47.386555,-122.20028,,,-13603272.944395455,6005399.522442223
1630895,7-Eleven #23931G,11657 Des Moines Memorial Dr S,,Seattle,WA,98168,1227,KING,Convenience Store,47.498177,-122.3088,,,-13615353.33553634,6023771.742153499
1466799,Rainier 76,6230 Rainier Ave S,,Seattle,WA,98118,2728,KING,Convenience Store,47.546272,-122.27561,,,-13611658.64163691,6031699.890164101
1468390,Papa Murphy's Take And Bake Pizza WA028,17650 140th Ave SE,Ste B,Renton,WA,98058,6814,KING,Specialty Store,47.444023,-122.15348,,,-13598063.192226328,6014853.494644867
1440161,7-eleven #14396e,7215 Sand Point Way NE,,Seattle,WA,98115,6323,KING,Convenience Store,47.681313,-122.26415,,,-13610382.92027242,6053999.487459132
1440379,Wallingford Farmers Market,5315 Meridian Ave N,,Seattle,WA,98103,6136,KING,Farmers and Markets,47.667362,-122.33378,,,-13618134.096416356,6051693.060331722
1536008,Ot Rainier Convenience Store,4206 Rainier Ave S,,Seattle,WA,98118,1357,KING,Grocery Store,47.565434,-122.28825,,,-13613065.720000537,6034860.647647055
1662353,CVS Pharmacy 11684,18022 68th Ave NE,,Kenmore,WA,98028,2400,KING,Other,47.759182,-122.24899,,,-13608695.316791993,6066884.400993757
1644866,Saveway Grocery,404 Auburn Way S,Unit 2,Auburn,WA,98002,5418,KING,Convenience Store,47.30389,-122.2252,,,-13606047.026106022,5991818.489240295
1500124,Dulceria Mexico,841 Central Ave N,,Kent,WA,98032,2016,KING,Convenience Store,47.389774,-122.23169,,,-13606769.489601268,6005928.80252503
1576151,Federal Way Grocery Outlet 154,32945 Pacific Hwy S,,Federal Way,WA,98003,6482,KING,Supermarket,47.306496,-122.31448,,,-13615985.630244045,5992246.304552088
1500294,7-eleven #23559e,2353 140th Ave NE,,Bellevue,WA,98005,1861,KING,Convenience Store,47.631172,-122.1544,,,-13598165.606157858,6045712.877789753
1499974,Azmera Market,6464 Mlk Jr Way S,Ste 103,Seattle,WA,98118,3182,KING,Grocery Store,47.54414,-122.28413,,,-13612607.083698468,6031348.289809236
1402128,Roba's African Store n/a,10854 Myers Way S,,Seattle,WA,98168,1368,KING,Other,47.505341,-122.33327,,,-13618077.32347605,6024952.220415199
1494314,7-eleven #26939d,2429 Harbor Ave SW,,Seattle,WA,98126,2133,KING,Convenience Store,47.581383,-122.37346,,,-13622551.25381103,6037492.305001333
1501946,7-eleven #41883a,1830 Minor Ave,,Seattle,WA,98101,1414,KING,Convenience Store,47.617542,-122.33118,,,-13617844.665740293,6043461.674850469
1469213,Circle K Stores 2709648,511 S Dearborn St,,Seattle,WA,98134,1318,KING,Convenience Store,47.5956,-122.32662,,,-13617337.048862277,6039838.850437505
1469215,Circle K Stores 2709649,1013 NE 45th St,,Seattle,WA,98105,4613,KING,Convenience Store,47.661037,-122.31696,,,-13616261.70258121,6050647.592762552
1469233,Circle K Stores 2709650,2501 NE 75th St,,Seattle,WA,98115,4675,KING,Convenience Store,47.682762,-122.30029,,,-13614406.006669687,6054239.076458555
1469234,Circle K Stores 2709651,700 12th Ave,,Seattle,WA,98122,4408,KING,Convenience Store,47.608334,-122.31625,,,-13616182.66574275,6041941.164962454
1469235,Circle K Stores 2709652,812 NE 65th St,,Seattle,WA,98115,5540,KING,Convenience Store,47.67609,-122.31905,,,-13616494.36031697,6053135.93098522
1469237,Circle K Stores 2709654,3828 Lake Washington Blvd NE,,Kirkland,WA,98033,7899,KING,Convenience Store,47.645702,-122.20136,,,-13603393.169445507,6048113.376146811
1469238,Circle K Stores 2709655,1809 W Meeker St,,Kent,WA,98032,4793,KING,Convenience Store,47.381523,-122.25922,,,-13609834.115182808,6004572.206834893
1536334,Uneek Market 1,2020 S 314th St,,Federal Way,WA,98003,5475,KING,Grocery Store,47.320869,-122.30766,,,-13615226.431316836,5994606.234436038
1536951,Bela Wholesale,4505 Martin Luther King Jr Way S,,Seattle,WA,98108,2174,KING,Grocery Store,47.56216,-122.29473,,,-13613787.070300877,6034320.52192755
1494590,Malli Am/pm,13515 Ambaum Blvd Sw,,Burien,WA,98146,3169,KING,Convenience Store,47.481655,-122.3488,,,-13619806.11516807,6021049.873976077
1469365,Federal Way Chevron 42090,31204 Pacific Hwy S,,Federal Way,WA,98003,5402,KING,Convenience Store,47.321964,-122.31285,,,-13615804.17947405,5994786.050860394
1604649,Al Watan Halal Meats & Market,1421 Market St,,Kirkland,WA,98033,5432,KING,Grocery Store,47.687145,-122.21029,,,-13604387.252498293,6054963.83649146
1486057,Yong Feng Shang Dian,412 8th Ave S,,Seattle,WA,98104,3002,KING,Other,47.598682,-122.32217,,,-13616841.677128244,6040347.625031967
1506273,Grocery Outlet Of Crown Hill 47,8700 15th Ave NW,,Seattle,WA,98117,3501,KING,Super Store,47.692924,-122.37592,,,-13622825.099758383,6055919.528087774
1520157,Afshar Bakery,124 Washington Ave N,,Kent,WA,98032,4400,KING,Grocery Store,47.381798,-122.24619,,,-13608383.622217773,6004617.417790222
1519572,Tolo Halal Market,8465 S 212th St,,Kent,WA,98031,1950,KING,Grocery Store,47.41143,-122.22641,,,-13606181.722689882,6009490.404051388
1568106,Woyni Market LLC,5999 Rainier Ave S,,Seattle,WA,98118,2763,KING,Grocery Store,47.547565,-122.27704,,,-13611817.828508744,6031913.133180838
1574337,7-eleven #23020e,1522 E Madison St,,Seattle,WA,98122,4014,KING,Convenience Store,47.615089,-122.31184,,,-13615691.746788349,6043056.58670335
1662339,CVS Pharmacy 11668,17254 140th Ave SE,,Renton,WA,98058,7064,KING,Other,47.447201,-122.15244,,,-13597947.4199559,6015376.603763233
1502579,Union Market,996 21st Ave,,Seattle,WA,98122,4759,KING,Convenience Store,47.612709,-122.30473,,,-13614900.26520881,6042663.571930906
1470877,Ilyas Home Shop & African Market,49 Logan Ave S,,Renton,WA,98057,2039,KING,Convenience Store,47.484615,-122.20943,,,-13604291.51773621,6021537.447495469
1576090,Rainbow Mini Mart,11454 16th Ave SW,,Seattle,WA,98146,3581,KING,Convenience Store,47.499447,-122.35478,,,-13620471.805723015,6023981.000003616
1503321,7-eleven #16545g,103 15th Ave E,,Seattle,WA,98112,5209,KING,Convenience Store,47.618687,-122.31313,,,-13615835.348931475,6043650.766528924
1471111,Enumclaw Plateau Farmers' Market,1600 First Street,,Enumclaw,WA,98022,    ,KING,Farmers and Markets,47.20266,-121.98773,,,-13579611.986627342,5975216.306796006
1662343,CVS Pharmacy 11679,100 N 85th St,,Seattle,WA,98103,3602,KING,Other,47.691116,-122.35719,,,-13620740.085695826,6055620.521998673
1495754,Woodinville Farmers Market,13205 NE 175th St,,Woodinville,WA,98072,8534,KING,Farmers and Markets,47.754189,-122.1628,,,-13599100.689880522,6066057.635566276
1648071,Madison Park Farmers Market,1803 42nd Ave E,,Seattle,WA,98112,3200,KING,Farmers and Markets,47.63472,-122.27879,,,-13612012.637617633,6046298.98055212
1507042,Ay Caramba Market Llc,11002 1st Ave S,,Seattle,WA,98168,1402,KING,Convenience Store,47.504993,-122.33324,,,-13618073.983891327,6024894.873527357
1537708,Rockridge Orchards & Cidery,40709 264th Ave SE,Ste 1,Enumclaw,WA,98022,8366,KING,Convenience Store,47.23624,-121.99025,,,-13579892.511744143,5980720.063675498
1653600,Zara Food Mart Llc,9530 Aurora Ave N,,Seattle,WA,98103,    ,KING,Convenience Store,47.698334,-122.3441,,,-13619282.91356134,6056814.292967039
1496267,7-Eleven #27742b,20008 Pacific Hwy S,,Seatac,WA,98198,5701,KING,Convenience Store,47.422428,-122.29622,,,-13613952.936342161,6011299.724203791
1496314,Sunset Chevron,150 SW Sunset Blvd,,Renton,WA,98057,2319,KING,Convenience Store,47.479507,-122.2203,,,-13605501.560601134,6020696.070933541
1486928,New Gan Shan Company,510 7th Ave S,,Seattle,WA,98104,2906,KING,Grocery Store,47.598095,-122.32339,,,-13616977.48690701,6040250.7211359525
1256688,7-eleven 23525f,12848 Martin Luther King Jr Way S,,Seattle,WA,98178,3512,KING,Convenience Store,47.487492,-122.25829,,,-13609730.58805637,6022011.375519796
1281294,Abyssinia Market,2225 4th Ave,Ste C,Seattle,WA,98121,2034,KING,Convenience Store,47.615166,-122.34368,,,-13619236.15937521,6043069.302185886
1186193,Abas Store ,15311 33rd Ave S,Unit 141,Seatac,WA,98188,5126,KING,Other,47.46534,-122.29024,,,-13613287.245787216,6018362.947257976
972714,Wallingford Shell,210 NE 45th St,,Seattle,WA,98105,6132,KING,Convenience Store,47.661366,-122.32704,,,-13617383.803048408,6050701.970482224
1471416,Aloha Islander Grocery,1811 Howard Rd,Ste 106,Auburn,WA,98002,6311,KING,Grocery Store,47.292458,-122.21249,,,-13604632.155378038,5989941.998300564
1209692,24/7 Grocery,11046 1st Ave S,,Seattle,WA,98168,1402,KING,Convenience Store,47.503845,-122.33332,,,-13618082.88945059,6024705.69740911
1265577,Sky Gas,147 N 5th St,,Skykomish,WA,98288,9800,KING,Convenience Store,47.708393,-121.36079,,,-13509821.345069407,6058478.20706734
968117,C & Y One Stop Mart,16402 SE 128th St,,Renton,WA,98059,8625,KING,Convenience Store,47.488098,-122.12136,,,-13594487.610182047,6022111.2051704535
1504433,Emanuel Shell On 104th Kent,23953 104th Ave SE,,Kent,WA,98031,3312,KING,Convenience Store,47.38731,-122.20264,,,-13603535.658393726,6005523.659479266
1497139,Kingsgate Chevron,15900 116th Ave NE,,Bothell,WA,98011,4104,KING,Convenience Store,47.743435,-122.18438,,,-13601502.964491839,6064277.20489827
1496769,Kent Valley Food Mart,8815 S 180th St,,Kent,WA,98032,1030,KING,Convenience Store,47.440594,-122.22311,,,-13605814.368370265,6014289.105555184
1496585,La Tipica Oaxaquena,1601 SW Roxbury St,,Seattle,WA,98106,2842,KING,Other,47.517162,-122.35552,,,-13620554.182146199,6026900.427756166
1539614,Dukem Market,215 SW 152nd St,,Burien,WA,98166,2307,KING,Other,47.466576,-122.33725,,,-13618520.375049405,6018566.475606724
1539015,Thanh Phat Tai Market,7143 Mlk Jr Way S,Ste D,Seattle,WA,98118,3521,KING,Grocery Store,47.53767,-122.28188,,,-13612356.614844184,6030281.372516586
1545910,Fremont Shell,4605 Fremont Ave N,,Seattle,WA,98103,6523,KING,Convenience Store,47.662422,-122.35049,,,-13619994.24510751,6050876.510402258
1546056,K 4 W Supermarket,9841 16th Ave SW,,Seattle,WA,98106,2830,KING,Grocery Store,47.514278,-122.35551,,,-13620553.068951292,6026425.078090798
1545825,Super Deli Mart,9051 35th Ave SW,,Seattle,WA,98126,3820,KING,Convenience Store,47.52129,-122.37731,,,-13622979.833850585,6027580.8627560735
1591626,Big Brother Farms NAFMNP,3919 Latona Ave Ne,Ste C1,Seattle,WA,98105,6864,KING,Farmers and Markets,47.655293,-122.32607,,,-13617275.823142339,6049698.269186344
1544176,Carnation Farmers Market,31020 NE 40th St,,Carnation,WA,98014,7501,KING,Farmers and Markets,47.644485,-121.92299,,,-13572405.162793385,6047912.290204918
1544329,All India Spice,4710 B St NW,Ste 103,Auburn,WA,98001,1749,KING,Other,47.349541,-122.23186,,,-13606788.413914705,5999315.862553723
1544693,Kent East Hill Farmers Market 0204,426 W Smith St,,Kent,WA,98032,4495,KING,Farmers and Markets,47.382984,-122.23504,,,-13607142.409895428,6004812.4030120885
950887,Mi Casa Market,17174 116th Ave SE,,Renton,WA,98058,5948,KING,Convenience Store,47.44939,-122.18546,,,-13601623.189541899,6015736.938653343
1546873,Dukem  Market Llc #2,3308 S 170th St,,Seatac,WA,98188,4423,KING,Other,47.451393,-122.28981,,,-13613239.378406176,6016066.668917547
951981,Beacon Avenue Shell Foodmart,2424 Beacon Ave S,,Seattle,WA,98144,5035,KING,Convenience Store,47.581516,-122.31381,,,-13615911.046185212,6037514.253974962
1489032,Summit Foods,530 Summit Ave E,,Seattle,WA,98102,4820,KING,Convenience Store,47.624126,-122.32505,,,-13617162.27726173,6044549.049848781
1592929,Arco Ampm 05481,15520 NE Woodinville Duvall Rd,,Woodinville,WA,98072,6476,KING,Convenience Store,47.761997,-122.1322,,,-13595694.313462246,6067350.557476599
1660525,Dash Point Grocery Outlet 528,1618 SW Dash Point Rd,,Federal Way,WA,98023,4530,KING,Supermarket,47.323505,-122.35681,,,-13620697.784289325,5995039.113895111
1272701,7-Eleven Store 17257B,1232 N 185th St,,Shoreline,WA,98133,4020,KING,Convenience Store,47.763287,-122.34256,,,-13619111.481545521,6067564.186460081
1228321,Plaza Los Jalapenos LLC,3700 NE 4th St,Unit 105,Renton,WA,98056,4132,KING,Grocery Store,47.488605,-122.16911,,,-13599803.115867427,6022194.726901717
1547493,C & F Food Store,6540 California Ave SW,,Seattle,WA,98136,2900,KING,Convenience Store,47.543762,-122.38664,,,-13624018.444699686,6031285.953152467
1540761,Morcos Service Station,9800 NE 116th St,,Kirkland,WA,98034,4297,KING,Convenience Store,47.704426,-122.20997,,,-13604351.630261239,6057821.965598212
1110245,Plaza Latina Rc,17034 Aurora Ave N,Ste D,Shoreline,WA,98133,5345,KING,Grocery Store,47.753468,-122.34517,,,-13619402.02541649,6065938.255405245
1548757,Dollar Plus Auburn N/A,3930 A St SE,Ste 304,Auburn,WA,98002,3857,KING,Convenience Store,47.273403,-122.2272,,,-13606269.665087607,5986815.1411482515
1548331,Noor Rahman International Halal Market,1811 Howard Rd,Suite 105,Auburn,WA,98002,6310,KING,Grocery Store,47.292458,-122.21249,,,-13604632.155378038,5989941.998300564
1490494,Grocery Outlet Lake City 118,3020 NE 127th St,,Seattle,WA,98125,4415,KING,Super Store,47.721767,-122.29485,,,-13613800.428639771,6060690.970807544
1547933,Gas N Grab,320 Griffin Ave,,Enumclaw,WA,98022,3425,KING,Convenience Store,47.19965,-121.98205,,,-13578979.691919638,5974723.1384239895
1548567,Kandahar Market,32911 1st Ave S,Ste F,Federal Way,WA,98003,2605,KING,Other,47.307278,-122.33566,,,-13618343.377059046,5992374.686092871
1548630,Muna Market,16256 Military Rd S,Ste 111,Seatac,WA,98188,3049,KING,Other,47.457375,-122.28196,,,-13612365.520403447,6017051.489782858
1541873,Grocery Outlet Of Dash Point 528,1618 SW Dash Point Rd,,Federal Way,WA,98023,4530,KING,Supermarket,47.323505,-122.35681,,,-13620697.784289325,5995039.113895111
1541900,Sipstop Cafe & Community Market,327 Williams Ave S,,Renton,WA,98057,2749,KING,Convenience Store,47.478672,-122.20702,,,-13604023.2377634,6020558.539670079
1541936,Wong Tung Seafood,210 12th Ave S,,Seattle,WA,98144,2084,KING,Specialty Store,47.600323,-122.31675,,,-13616238.325488145,6040618.532492359
1662348,CVS Pharmacy 11632,5217 California Ave SW,,Seattle,WA,98136,1209,KING,Other,47.555721,-122.38753,,,-13624117.519046493,6033258.35114959
1653791,Burien 76,18032 1st Ave S,,Burien,WA,98148,1820,KING,Convenience Store,47.441078,-122.33409,,,-13618168.605458502,6014368.766294094
1541557,Salam Deli Mart,1620 S 312th St,Ste G,Federal Way,WA,98003,4945,KING,Grocery Store,47.322712,-122.31213,,,-13615724.02944068,5994908.886505606
1541174,Safeway 2980,4732 Brooklyn Ave NE,,Seattle,WA,98105,4411,KING,Supermarket,47.664314,-122.3139,,,-13615921.064939383,6051189.236588921
1205102,B & E Meats And Seafood Inc.,2401 Queen Anne Ave N,,Seattle,WA,98109,2021,KING,Other,47.639755,-122.35722,,,-13620743.425280549,6047130.792779156
1548874,Alrayahin Bakery & Sweets Llc,10420 SE Kent Kangley Rd,,Kent,WA,98030,7624,KING,Grocery Store,47.372318,-122.20002,,,-13603244.001327846,6003059.008896688
1304835,La Nueva Lupita,2124 SW 336th St,,Federal Way,WA,98023,2883,KING,Grocery Store,47.300724,-122.3622,,,-13621297.796344697,5991298.769618137
1260430,Pacific Chevron,14415 Tukwila International Blvd,,Tukwila,WA,98168,4324,KING,Convenience Store,47.473835,-122.28458,,,-13612657.177469328,6019761.889590033
1473267,Kitchen And Market 001,1926 Pike Pl,,Seattle,WA,98101,1013,KING,Grocery Store,47.610371,-122.34285,,,-13619143.764197849,6042277.51012874
1551491,Farmhouse Market,33521 SE Redmond Fall City Rd,,Fall City,WA,98024,5003,KING,Supermarket,47.568138,-121.89212,,,-13568968.7301126,6035306.76349503
1560342,Crossroads Grocery Outlet 243,15625 NE 8th St,,Bellevue,WA,98008,3901,KING,Supermarket,47.616398,-122.13137,,,-13595601.91828489,6043272.752452991
1559017,Home Deli & Grocery,502 Minor Ave N,,Seattle,WA,98109,5518,KING,Convenience Store,47.62328,-122.33277,,,-13618021.663730655,6044409.321760429
1551759,Corner Store,2809 Thorndyke Ave W,Ste B,Seattle,WA,98199,2986,KING,Convenience Store,47.645275,-122.38313,,,-13623627.713287003,6048042.822041238
1551782,Gmburien Llc,105 S 156th St,,Burien,WA,98148,1220,KING,Convenience Store,47.462997,-122.33334,,,-13618085.115840405,6017977.145730793
1552008,Seatac Mini Mart,4603 S 188th St,,Seatac,WA,98188,8623,KING,Convenience Store,47.434116,-122.27586,,,-13611686.471509608,6013222.973061768
1559206,Circle K Stores 2709653,852 Rainier Ave S,,Seattle,WA,98144,2838,KING,Convenience Store,47.594738,-122.31014,,,-13615502.503654001,6039696.557390045
1542376,Burien Shell,12653 Ambaum Blvd SW,,Burien,WA,98146,3152,KING,Convenience Store,47.488716,-122.35074,,,-13620022.074980209,6022213.0128321145
1542385,Normandy Park Shell,17956 1st Ave S,,Burien,WA,98148,2726,KING,Convenience Store,47.44215,-122.33385,,,-13618141.888780711,6014545.207564682
1181804,Grocery Video Cuautla,223 SW 152nd St,,Burien,WA,98166,2307,KING,Grocery Store,47.466576,-122.33725,,,-13618520.375049405,6018566.475606724
1542833,Brar Benson Mart,19044 108th Ave SE,,Renton,WA,98055,6425,KING,Convenience Store,47.430538,-122.1966,,,-13602863.288669333,6012634.171334593
1542623,The Little Store,2810 W Lake Sammamish Pkwy SE,,Bellevue,WA,98008,5645,KING,Convenience Store,47.585117,-122.11105,,,-13593339.90623197,6038108.547756171
1115625,Parnells Mini Mart,722 23rd Ave S,,Seattle,WA,98144,    ,KING,Convenience Store,47.595772,-122.30219,,,-13614617.513702195,6039867.243298268
817959,7-ELEVEN 22984,3702 Auburn Way N,,Auburn,WA,98002,1320,KING,Convenience Store,47.340408,-122.22227,,,-13605720.859997997,5997815.4094255455
1169638,7-Eleven 35675B,24012 104th Ave Se,,Kent,WA,98030,4976,KING,Convenience Store,47.386768,-122.20217,,,-13603483.33823305,6005434.543704406
1172010,24 East Hill Market,23847 108th Ave Se,,Kent,WA,98031,3553,KING,Convenience Store,47.38847,-122.19711,,,-13602920.061609639,6005714.390047254
1086850,Nazareth Market,5418 Martin Luther King Jr Way S,,Seattle,WA,98118,    ,KING,Grocery Store,47.552784,-122.28869,,,-13613114.700576486,6032773.910013539
1215943,Kent Circle Food Store,10602 SE 256th St,,Kent,WA,98030,6424,KING,Convenience Store,47.372604,-122.19977,,,-13603216.171455149,6003106.020087515
1286601,Friendly Food Mart,10500 Greenwood Ave N,,Seattle,WA,98133,8721,KING,Convenience Store,47.705299,-122.35542,,,-13620543.05019712,6057966.377445833
1663089,Island Pacific Supermarket 030,31811 Pacific Hwy S,,Federal Way,WA,98003,5646,KING,Super Store,47.316418,-122.31544,,,-13616092.496955207,5993875.34776997
1528883,Eastgate Texaco EM 4188,15220 SE 37th St,,Bellevue,WA,98006,1731,KING,Convenience Store,47.577698,-122.13706,,,-13596235.326187503,6036884.192078821
1552773,West Valley Pitstop,6331 S 212th St,,Kent,WA,98032,2333,KING,Convenience Store,47.411507,-122.25562,,,-13609433.36501595,6009503.0702821035
1277512,Asia Hiwave City,1075 Bellevue Way NE,Ste B7,Bellevue,WA,98004,4274,KING,Convenience Store,47.619919,-122.20175,,,-13603436.584046919,6043854.23049705
1256917,7-eleven 14373C,8250 Lake City Way NE,,Seattle,WA,98115,4410,KING,Convenience Store,47.689194,-122.30973,,,-13615456.862662775,6055302.674016364
1553775,Grocery Outlet Of Kent 197,23910 104th Ave SE,,Kent,WA,98031,3383,KING,Supermarket,47.387985,-122.20036,,,-13603281.849954717,6005634.6444284655
1553654,7-eleven #18553e,3939 Stone Way N,,Seattle,WA,98103,8017,KING,Convenience Store,47.655094,-122.34293,,,-13619152.669757113,6049665.3818881875
1135755,Sunset Gas & Food Mart,1607 145th Pl Se,,Bellevue,WA,98007,6016,KING,Convenience Store,47.595871,-122.14984,,,-13597657.989279838,6039883.585743006
947201,Foley's Produce,21419 Renton Maple Valley Rd SE,,Maple Valley,WA,98038,8012,KING,Farmers and Markets,47.409843,-122.03914,,,-13585334.921649024,6009229.352225457
1137544,Bilaal Mini Market,5041 Rainier Ave S,Ste 104,Seattle,WA,98118,1946,KING,Other,47.556725,-122.28445,,,-13612642.705935523,6033423.961360998
1043011,Ammana Houseware & Grocery Llc 1,5503 Martin Luther King Jr Way S,,Seattle,WA,98118,2236,KING,Grocery Store,47.552483,-122.28883,,,-13613130.285305196,6032724.263341089
815776,Lennys Fruit and Vegetables,10410 Greenwood Ave N,Ste C,Seattle,WA,98133,9196,KING,Grocery Store,47.704708,-122.35541,,,-13620541.937002214,6057868.613834372
1294899,Kent Pacific Market & Halal Meat,23643 104th Ave SE,,Kent,WA,98031,3315,KING,Grocery Store,47.389576,-122.2032,,,-13603597.997308567,6005896.245687583
1232738,Auburn International Farmers Market,1140 Auburn Way S,Les Grove Park,Auburn,WA,98002,    ,KING,Farmers and Markets,47.298042,-122.21752,,,-13605192.092416728,5990858.526112709
1015089,Sahand Persian Grocery,12047 124th Ave NE,,Kirkland,WA,98034,8204,KING,Grocery Store,47.706406,-122.17722,,,-13600705.916937761,6058149.501101723
1244362,Enchanted Parkway Chevron,1712 S 356th St,,Federal Way,WA,98003,8304,KING,Convenience Store,47.282639,-122.31245,,,-13615759.651677733,5988330.594969668
1307956,Hilaac Halal Market Inc,25656 102nd Pl SE,,Kent,WA,98030,6410,KING,Grocery Store,47.371078,-122.20464,,,-13603758.297375312,6002855.187102113
902094,Moga Minimarket,6727 Martin Luther King Jr Way S,Ste B,Seattle,WA,98118,3205,KING,Grocery Store,47.541641,-122.28359,,,-13612546.97117344,6030936.183581913
1286946,Oasis 76,11249 1st Ave S,,Seattle,WA,98168,2001,KING,Convenience Store,47.501526,-122.33373,,,-13618128.530441817,6024323.567677568
1299612,Campeon Market 1,31009 Pacific Hwy S,,Federal Way,WA,98003,4903,KING,Super Store,47.323421,-122.31352,,,-13615878.763532883,5995025.319224084
1155941,Carniceria Los Compadres 3,419 Rainier Ave N,,Renton,WA,98057,5319,KING,Grocery Store,47.489002,-122.21862,,,-13605314.5438566,6022260.1281101275
1294338,Southwest Deli & Grocery,3413 SW Graham St,,Seattle,WA,98126,3158,KING,Other,47.546307,-122.37579,,,-13622810.628224578,6031705.662334265
971965,Sandhu Shell Mini Mart,2659 148th Ave Se,,Bellevue,WA,98007,6451,KING,Convenience Store,47.586262,-122.1429,,,-13596885.432013735,6038297.522270756
1554616,Punjabi Bazar Llp,24030 132nd Ave SE,Unit A,Kent,WA,98042,5109,KING,Grocery Store,47.386276,-122.16472,,,-13599314.423302842,6005353.649735423
1660760,CVS Pharmacy 11681,10625 NE 68th St,,Kirkland,WA,98033,7054,KING,Other,47.665802,-122.19707,,,-13602915.608830005,6051435.194110749
1072889,El Mercado Latino,1514 Pike Pl,Ste 6,Seattle,WA,98101,1574,KING,Grocery Store,47.609177,-122.34081,,,-13618916.67243663,6042080.357764951
1650195,Jing Jing Go,226 Main St,,Kirkland,WA,98033,6108,KING,Grocery Store,47.676575,-122.20486,,,-13603782.787663285,6053216.115912186
961905,AY Jalisco,108 Factory Ave N,Ste 1A,Renton,WA,98057,5579,KING,Grocery Store,47.484428,-122.19792,,,-13603010.23039718,6021506.643895945
1015884,Skyway Gasoline 2,11900 Renton Ave S,,Seattle,WA,98178,3734,KING,Convenience Store,47.497269,-122.2449,,,-13608240.02007465,6023622.134132201
1289969,Habib Discount Store,9670 14th Ave SW,Unit C,Seattle,WA,98106,2876,KING,Grocery Store,47.515728,-122.35281,,,-13620252.506326152,6026664.068242206
1248454,Auburn Shell,32002 Military Rd S,,Federal Way,WA,98001,9698,KING,Convenience Store,47.314407,-122.28343,,,-13612529.160054913,5993545.147093285
1252885,Sunset  76 Gas,3002 Ne Sunset Blvd,,Renton,WA,98056,3102,KING,Convenience Store,47.502682,-122.1779,,,-13600781.614191499,6024514.053695924
879169,Mercato Bellagio,745 Bellevue Ave E,Ste C101,Seattle,WA,98102,4486,KING,Convenience Store,47.626362,-122.32662,,,-13617337.048862277,6044918.365707087
824012,Kens QA,2400 6th Ave W,,Seattle,WA,98119,2509,KING,Supermarket,47.639709,-122.36492,,,-13621600.585359657,6047123.192940172
1307231,Europe Food Mart Llc,113 49th St NE,,Auburn,WA,98002,1202,KING,Grocery Store,47.351139,-122.22779,,,-13606335.343587175,5999578.423359286
1076374,Seatac 76,19924 International Blvd,,Seatac,WA,98188,5416,KING,Convenience Store,47.422989,-122.2958,,,-13613906.182156026,6011392.026443201
1054035,Shoreline Farmers Market Association,15415 Westminster Way N,,Shoreline,WA,98133,6129,KING,Farmers and Markets,47.741577,-122.34863,,,-13619787.190854635,6063969.631955681
1246282,Beacon Hill 76 1,2415 Beacon Ave S,,Seattle,WA,98144,5034,KING,Convenience Store,47.581417,-122.31425,,,-13615960.026761163,6037497.916011844
1245810,Checkers III,10359 51st Ave S,,Seattle,WA,98178,2161,KING,Convenience Store,47.50713,-122.27017,,,-13611053.063606992,6025247.035561034
1278743,East Lake Specialty Market,1540 Eastlake Ave E,,Seattle,WA,98102,3742,KING,Convenience Store,47.633457,-122.32567,,,-13617231.295346022,6046090.337944209
1289936,24/7 Convenience Store 1,11853 Glendale Way S,,Seattle,WA,98168,1246,KING,Convenience Store,47.496178,-122.31091,,,-13615588.219661914,6023442.377255278
1196737,Benson Mart,20712 108th Ave Se,,Kent,WA,98031,5548,KING,Convenience Store,47.416428,-122.197,,,-13602907.81646565,6010312.595986742
966263,La Superior # 1,900 160th Ave NE,Ste 7,Bellevue,WA,98008,3939,KING,Grocery Store,47.617905,-122.12724,,,-13595142.168787913,6043521.622244332
1248368,Arco Ampm,27202 Pacific Hwy S,,Federal Way,WA,98003,6998,KING,Convenience Store,47.357529,-122.30881,,,-13615354.448731247,6000628.41743298
1569254,Tiendita Las Canicas,2337 SW 336th St,,Federal Way,WA,98023,3823,KING,Convenience Store,47.299831,-122.36357,,,-13621450.304047085,5991152.183450512
1060385,QT Market,3621 33rd Ave S,Ste C8,Seattle,WA,98144,6962,KING,Convenience Store,47.571194,-122.29134,,,-13613409.697227089,6035810.981319839
1184963,South Park Food Center,8909 14th Ave S,,Seattle,WA,98108,    ,KING,Convenience Store,47.52364,-122.31499,,,-13616042.403184347,6027968.246712612
821585,Dong Sing Market,625 S Jackson St,,Seattle,WA,98104,2910,KING,Grocery Store,47.598919,-122.32544,,,-13617205.69186314,6040386.75008172
1302307,7-eleven 35333B,1602 A St SE,,Auburn,WA,98002,6620,KING,Convenience Store,47.293812,-122.22891,,,-13606460.021416863,5990164.227710359
1104868,Arco AM-PM 82611,24001 Pacific Hwy S,,Kent,WA,98032,4081,KING,Convenience Store,47.386166,-122.29658,,,-13613993.011358846,6005335.563788723
826097,Asian Food Center,14509 NE 20th St,,Bellevue,WA,98007,3712,KING,Super Store,47.627167,-122.14661,,,-13597298.427324576,6045051.329890521
1168086,Papa Murphys Take And Bake Pizza WA157,456 Sw Mt Si Blvd,,North Bend,WA,98045,    ,KING,Specialty Store,47.48698,-121.79267,,,-13557898.006753206,6021927.031894107
1304230,Al-barawi International Food Market,27040 Pacific Hwy S,,Kent,WA,98032,6918,KING,Grocery Store,47.358501,-122.30909,,,-13615385.618188668,6000788.145983275
1228861,7-Eleven 26268D,28719 Military Rd S,,Federal Way,WA,98003,3332,KING,Convenience Store,47.343582,-122.30138,,,-13614527.34491465,5998336.8338676235
1179321,Auburn North Shell Food Mart,1439 Auburn Way N,,Auburn,WA,98002,3310,KING,Convenience Store,47.320591,-122.22152,,,-13605637.370379902,5994560.583005522
1283557,Main Street Shell,1204 E Main St,,Auburn,WA,98002,5760,KING,Convenience Store,47.307705,-122.21302,,,-13604691.15470816,5992444.787812625
1555498,Hc Grocery,7106 Beacon Ave S,,Seattle,WA,98108,3913,KING,Grocery Store,47.538525,-122.29532,,,-13613852.748800443,6030422.35635544
1238685,7-eleven 27030B,680 Strander Blvd,,Tukwila,WA,98188,2923,KING,Convenience Store,47.456818,-122.24438,,,-13608182.133939438,6016959.785751022
908278,Ballard 76,5715 15th Ave NW,,Seattle,WA,98107,3132,KING,Convenience Store,47.67067,-122.37627,,,-13622864.06158016,6052239.894459767
1557322,405 Express Mart,1800 Ne 44th St,Ste 100,Renton,WA,98056,1695,KING,Convenience Store,47.532757,-122.19424,,,-13602600.574671062,6029471.295902868
1209977,Northgate Chevron 1,2150 N Northgate Way,,Seattle,WA,98133,9007,KING,Convenience Store,47.708687,-122.33177,,,-13617910.344239859,6058526.844041953
810076,New Golden Village Market,9810 14th Ave SW,,Seattle,WA,98106,2816,KING,Grocery Store,47.515141,-122.35278,,,-13620249.166741427,6026567.3176405
1284917,Vashon Mart,17803 Vashon Hwy Sw,,Vashon,WA,98070,    ,KING,Convenience Store,47.445122,-122.46054,,,-13632244.95506931,6015034.390038293
858815,7-Eleven 20249D,1302 8th St NE,,Auburn,WA,98002,4556,KING,Convenience Store,47.315243,-122.21307,,,-13604696.7206827,5993682.414471024
1292537,Hung Long Asian Market,9988 15th Ave SW,Ste K,Seattle,WA,98146,3723,KING,Supermarket,47.513634,-122.35382,,,-13620364.939011853,6026318.935617224
1181439,7-Eleven 39638A,300 Rainier Ave S,,Renton,WA,98057,2403,KING,Convenience Store,47.479149,-122.21672,,,-13605103.036824092,6020637.105166091
1093121,Oskoo Persian And Meditrranean Market 1,14100 NE 20th St,Ste 107,Bellevue,WA,98007,3727,KING,Grocery Store,47.628349,-122.15253,,,-13597957.438710073,6045246.567967751
1048822,Aurora Village 76,20409 Aurora Ave N,,Shoreline,WA,98133,3137,KING,Convenience Store,47.777298,-122.34674,,,-13619576.797017036,6069884.803511793
889961,7-Eleven 21833C,13923 NE 175th St,,Woodinville,WA,98072,8512,KING,Convenience Store,47.75444,-122.15312,,,-13598023.117209641,6066099.195483442
1005828,Fremont 76,4600 Fremont Ave N,,Seattle,WA,98103,6524,KING,Convenience Store,47.662369,-122.35,,,-13619939.698557021,6050867.7502653
1212667,Bah's African Store,100 Railroad Ave S,Ste B,Kent,WA,98032,5941,KING,Grocery Store,47.38147,-122.23231,,,-13606838.50768556,6004563.493477879
1034192,Javis Mexi Market,14820 Tukwila International Blvd,,Tukwila,WA,98168,4329,KING,Grocery Store,47.470116,-122.28583,,,-13612796.326832816,6019149.423089555
1660757,CVS Pharmacy 11680,526 228th Ave NE,,Sammamish,WA,98074,7226,KING,Other,47.614521,-122.03359,,,-13584717.098475123,6042962.789956118
968230,Pine Food Store,701 E Pine St,,Seattle,WA,98122,2234,KING,Convenience Store,47.615192,-122.32319,,,-13616955.223008852,6043073.595729671
1223658,Hong Kong Market In Federal Way LLC,35415 21st Ave Sw,,Federal Way,WA,98023,3050,KING,Supermarket,47.284039,-122.36119,,,-13621185.363658998,5988560.331718509
1044114,Ba Mien Seafood Market,6951 Martin Luther King Jr Way S,Ste 121,Seattle,WA,98118,3545,KING,Super Store,47.539406,-122.28249,,,-13612424.519733567,6030567.629827132
1005930,Foss Market Inc,16255 SE 256th St,,Covington,WA,98042,4120,KING,Convenience Store,47.372227,-122.12346,,,-13594721.381112713,6003044.050843983
1039514,Alfurat Market,137 SW 153rd St,,Burien,WA,98166,2311,KING,Grocery Store,47.465675,-122.33532,,,-13618305.528432176,6018418.110213061
1311117,Castillos Supermarkets 1,10426 16th Ave SW,,Seattle,WA,98146,1475,KING,Super Store,47.509182,-122.35507,,,-13620504.088375343,6025585.203707765
1257093,Bill And Johns Food Mart,2439 Maple Valley Hwy,,Renton,WA,98057,3902,KING,Convenience Store,47.477444,-122.18634,,,-13601721.150693795,6020356.282094115
1308794,7-Eleven Store 39836A,31980 Military Rd S,,Auburn,WA,98001,3120,KING,Convenience Store,47.315342,-122.28371,,,-13612560.329512333,5993698.669962198
1032827,Shell Mini Mart,29625 Pacific Hwy S,,Federal Way,WA,98003,4232,KING,Convenience Store,47.336288,-122.31217,,,-13615728.482220313,5997138.622937622
